{"type": "FeatureCollection", "features": [{"id": "0", "type": "Feature", "properties": {"canonical_longitude": 13.402122, "canonical_latitude": 32.8015868, "feature_version": "gis_v2_density_circles_geodesic_20260922", "population_density_1km": 668.2662963867188, "dist_to_nearest_road_m": 31.17631992054745, "municipality_name": "Tripoli", "population_sum_3km": 22506.894728740663, "population_observed_3km": 22506.894728740663, "population_valid_fraction_3km": 1.0, "population_sum_5km": 68900.15590262548, "population_observed_5km": 68900.15590262548, "population_valid_fraction_5km": 1.0, "elevation_m": 94.0, "elevation_prominence_3km": 7.050326121561341, "terrain_slope_deg": 0.6859531359775072, "dist_to_nearest_site_m": 3288.421286626226, "site_density_1km": 0, "site_density_3km": 0, "site_density_5km": 8, "site_density_10km": 90, "dist_to_libyana_site_m": 3307.6881528283907, "dist_to_almadar_site_m": 3288.421286626226, "dist_to_nearest_settlement_m": 10195.738281567956, "inside_libya": true, "population_data_available": true, "terrain_data_available": true, "population_units": "people", "population_radius_m": 5000, "population_source_units": "people_per_km2", "operator_scope": "all", "source_lock_sha256": "3e5d6f9afadaac1f4d1aebe6539fcd69540c23446b0631b0e10c0cb4f9e74d10", "h3_r7": "873fa5976ffffff", "h3_r6": "863fa5977ffffff", "h3_index": "883fa5976bfffff", "h3_resolution": 8, "building_height_m": null, "building_height_status": "Unavailable", "worldcover_class_code": 30, "worldcover_class_name": "Grassland", "worldcover_data_available": true, "worldcover_is_water": false, "candidate_source": "h3_r8_centre", "candidate_id": "candidate-0380ac960cab", "rejection_reasons": "", "eligible": true, "demand_component": 0.9676, "known_site_gap_component": 0.017, "road_access_component": 0.9922, "terrain_component": 0.7624, "planning_priority_score": 66.6827, "score_version": "explainable-gis-v2-20260923", "reason_codes": "high_population_catchment;good_road_access", "candidate_status": "engineering_review", "recommendation_rank": 1, "worldcover_h3_coverage_pct": 99.949, "worldcover_h3_dominant_class_code": 30, "worldcover_h3_dominant_class_name": "Grassland", "worldcover_h3_water_fraction": 0.0, "worldcover_h3_built_up_fraction": 0.229107, "worldcover_h3_bare_fraction": 0.071635, "worldcover_review_required": false, "osm_building_count_h3": 853, "osm_building_footprint_area_m2_h3": 181127.12, "osm_building_coverage_ratio_h3": 0.030332, "osm_building_density_per_km2_h3": 142.8449, "osm_building_observed_h3": true, "osm_building_context_available": true, "osm_building_review_required": false, "osm_hospital_nearest_distance_m": 2657.8, "osm_hospital_count_h3": 0, "osm_hospital_observed_h3": false, "osm_higher_education_nearest_distance_m": 3667.7, "osm_higher_education_count_h3": 0, "osm_higher_education_observed_h3": false, "osm_aviation_nearest_distance_m": 15373.2, "osm_aviation_count_h3": 0, "osm_aviation_observed_h3": false, "osm_industrial_nearest_distance_m": 3863.4, "osm_industrial_count_h3": 0, "osm_industrial_observed_h3": false, "osm_selected_context_available": true}, "geometry": {"type": "Point", "coordinates": [13.402122, 32.8015868]}}, {"id": "1", "type": "Feature", "properties": {"canonical_longitude": 13.0436439, "canonical_latitude": 32.7348188, "feature_version": "gis_v2_density_circles_geodesic_20260922", "population_density_1km": 708.56982421875, "dist_to_nearest_road_m": 164.2513559900823, "municipality_name": "Aljfara", "population_sum_3km": 13382.244361745212, "population_observed_3km": 13382.244361745212, "population_valid_fraction_3km": 0.9999999999999958, "population_sum_5km": 41935.807712263115, "population_observed_5km": 41935.807712263115, "population_valid_fraction_5km": 0.9999999999999987, "elevation_m": 56.0, "elevation_prominence_3km": 2.521445343191978, "terrain_slope_deg": 0.45723710307662113, "dist_to_nearest_site_m": 4571.135389490324, "site_density_1km": 0, "site_density_3km": 0, "site_density_5km": 3, "site_density_10km": 100, "dist_to_libyana_site_m": 5027.505724396053, "dist_to_almadar_site_m": 4571.135389490324, "dist_to_nearest_settlement_m": 3318.2614303705423, "inside_libya": true, "population_data_available": true, "terrain_data_available": true, "population_units": "people", "population_radius_m": 5000, "population_source_units": "people_per_km2", "operator_scope": "all", "source_lock_sha256": "3e5d6f9afadaac1f4d1aebe6539fcd69540c23446b0631b0e10c0cb4f9e74d10", "h3_r7": "87384b654ffffff", "h3_r6": "86384b657ffffff", "h3_index": "88384b6543fffff", "h3_resolution": 8, "building_height_m": null, "building_height_status": "Unavailable", "worldcover_class_code": 60, "worldcover_class_name": "Bare / sparse vegetation", "worldcover_data_available": true, "worldcover_is_water": false, "candidate_source": "h3_r8_centre", "candidate_id": "candidate-64581136f4df", "rejection_reasons": "", "eligible": true, "demand_component": 0.9245, "known_site_gap_component": 0.0924, "road_access_component": 0.9589, "terrain_component": 0.7474, "planning_priority_score": 66.4057, "score_version": "explainable-gis-v2-20260923", "reason_codes": "high_population_catchment;good_road_access", "candidate_status": "engineering_review", "recommendation_rank": 2, "worldcover_h3_coverage_pct": 99.9425, "worldcover_h3_dominant_class_code": 40, "worldcover_h3_dominant_class_name": "Cropland", "worldcover_h3_water_fraction": 0.0, "worldcover_h3_built_up_fraction": 0.263318, "worldcover_h3_bare_fraction": 0.048713, "worldcover_review_required": false, "osm_building_count_h3": 3, "osm_building_footprint_area_m2_h3": 25741.79, "osm_building_coverage_ratio_h3": 0.00432, "osm_building_density_per_km2_h3": 0.5035, "osm_building_observed_h3": true, "osm_building_context_available": true, "osm_building_review_required": false, "osm_hospital_nearest_distance_m": 1591.3, "osm_hospital_count_h3": 0, "osm_hospital_observed_h3": false, "osm_higher_education_nearest_distance_m": 2961.8, "osm_higher_education_count_h3": 0, "osm_higher_education_observed_h3": false, "osm_aviation_nearest_distance_m": 11945.1, "osm_aviation_count_h3": 0, "osm_aviation_observed_h3": false, "osm_industrial_nearest_distance_m": 1060.1, "osm_industrial_count_h3": 2, "osm_industrial_observed_h3": true, "osm_selected_context_available": true}, "geometry": {"type": "Point", "coordinates": [13.0436439, 32.7348188]}}, {"id": "2", "type": "Feature", "properties": {"canonical_longitude": 13.2061793, "canonical_latitude": 32.7601974, "feature_version": "gis_v2_density_circles_geodesic_20260922", "population_density_1km": 1533.98876953125, "dist_to_nearest_road_m": 412.02822823485076, "municipality_name": "Aljfara", "population_sum_3km": 37449.75951631662, "population_observed_3km": 37449.75951631662, "population_valid_fraction_3km": 1.0, "population_sum_5km": 100276.64945889227, "population_observed_5km": 100276.64945889227, "population_valid_fraction_5km": 1.0, "elevation_m": 50.0, "elevation_prominence_3km": -1.8714842532987674, "terrain_slope_deg": 0.3186117586882932, "dist_to_nearest_site_m": 3553.5673405934267, "site_density_1km": 0, "site_density_3km": 0, "site_density_5km": 19, "site_density_10km": 149, "dist_to_libyana_site_m": 3553.5673405934267, "dist_to_almadar_site_m": 3800.7986838897978, "dist_to_nearest_settlement_m": 8375.984010075299, "inside_libya": true, "population_data_available": true, "terrain_data_available": true, "population_units": "people", "population_radius_m": 5000, "population_source_units": "people_per_km2", "operator_scope": "all", "source_lock_sha256": "3e5d6f9afadaac1f4d1aebe6539fcd69540c23446b0631b0e10c0cb4f9e74d10", "h3_r7": "873fa5932ffffff", "h3_r6": "863fa5937ffffff", "h3_index": "883fa59325fffff", "h3_resolution": 8, "building_height_m": null, "building_height_status": "Unavailable", "worldcover_class_code": 50, "worldcover_class_name": "Built-up", "worldcover_data_available": true, "worldcover_is_water": false, "candidate_source": "h3_r8_centre", "candidate_id": "candidate-c3950471aa65", "rejection_reasons": "", "eligible": true, "demand_component": 1.0, "known_site_gap_component": 0.0326, "road_access_component": 0.897, "terrain_component": 0.73, "planning_priority_score": 66.217, "score_version": "explainable-gis-v2-20260923", "reason_codes": "high_population_catchment;good_road_access", "candidate_status": "engineering_review", "recommendation_rank": 3, "worldcover_h3_coverage_pct": 99.9471, "worldcover_h3_dominant_class_code": 50, "worldcover_h3_dominant_class_name": "Built-up", "worldcover_h3_water_fraction": 0.0, "worldcover_h3_built_up_fraction": 0.479656, "worldcover_h3_bare_fraction": 0.020347, "worldcover_review_required": false, "osm_building_count_h3": 808, "osm_building_footprint_area_m2_h3": 230264.62, "osm_building_coverage_ratio_h3": 0.038603, "osm_building_density_per_km2_h3": 135.4572, "osm_building_observed_h3": true, "osm_building_context_available": true, "osm_building_review_required": false, "osm_hospital_nearest_distance_m": 4295.5, "osm_hospital_count_h3": 0, "osm_hospital_observed_h3": false, "osm_higher_education_nearest_distance_m": 4421.7, "osm_higher_education_count_h3": 0, "osm_higher_education_observed_h3": false, "osm_aviation_nearest_distance_m": 11497.2, "osm_aviation_count_h3": 0, "osm_aviation_observed_h3": false, "osm_industrial_nearest_distance_m": 2370.9, "osm_industrial_count_h3": 0, "osm_industrial_observed_h3": false, "osm_selected_context_available": true}, "geometry": {"type": "Point", "coordinates": [13.2061793, 32.7601974]}}, {"id": "3", "type": "Feature", "properties": {"canonical_longitude": 13.0816617, "canonical_latitude": 32.7337167, "feature_version": "gis_v2_density_circles_geodesic_20260922", "population_density_1km": 1048.262451171875, "dist_to_nearest_road_m": 276.7638954063435, "municipality_name": "Aljfara", "population_sum_3km": 21076.240713015453, "population_observed_3km": 21076.240713015453, "population_valid_fraction_3km": 1.0, "population_sum_5km": 50376.0383968682, "population_observed_5km": 50376.0383968682, "population_valid_fraction_5km": 1.0, "elevation_m": 62.0, "elevation_prominence_3km": 6.117704754747791, "terrain_slope_deg": 0.5172068499218114, "dist_to_nearest_site_m": 3067.647859381604, "site_density_1km": 0, "site_density_3km": 0, "site_density_5km": 17, "site_density_10km": 105, "dist_to_libyana_site_m": 3067.647859381604, "dist_to_almadar_site_m": 3524.819152900445, "dist_to_nearest_settlement_m": 2710.66786319082, "inside_libya": true, "population_data_available": true, "terrain_data_available": true, "population_units": "people", "population_radius_m": 5000, "population_source_units": "people_per_km2", "operator_scope": "all", "source_lock_sha256": "3e5d6f9afadaac1f4d1aebe6539fcd69540c23446b0631b0e10c0cb4f9e74d10", "h3_r7": "87384b642ffffff", "h3_r6": "86384b647ffffff", "h3_index": "88384b6425fffff", "h3_resolution": 8, "building_height_m": null, "building_height_status": "Unavailable", "worldcover_class_code": 50, "worldcover_class_name": "Built-up", "worldcover_data_available": true, "worldcover_is_water": false, "candidate_source": "h3_r8_centre", "candidate_id": "candidate-ccfe3893535f", "rejection_reasons": "", "eligible": true, "demand_component": 0.9404, "known_site_gap_component": 0.004, "road_access_component": 0.9308, "terrain_component": 0.7633, "planning_priority_score": 63.9869, "score_version": "explainable-gis-v2-20260923", "reason_codes": "high_population_catchment;good_road_access", "candidate_status": "engineering_review", "recommendation_rank": 4, "worldcover_h3_coverage_pct": 99.9449, "worldcover_h3_dominant_class_code": 50, "worldcover_h3_dominant_class_name": "Built-up", "worldcover_h3_water_fraction": 0.0, "worldcover_h3_built_up_fraction": 0.424111, "worldcover_h3_bare_fraction": 0.017911, "worldcover_review_required": false, "osm_building_count_h3": 86, "osm_building_footprint_area_m2_h3": 176495.63, "osm_building_coverage_ratio_h3": 0.029611, "osm_building_density_per_km2_h3": 14.4282, "osm_building_observed_h3": true, "osm_building_context_available": true, "osm_building_review_required": false, "osm_hospital_nearest_distance_m": 2096.8, "osm_hospital_count_h3": 0, "osm_hospital_observed_h3": false, "osm_higher_education_nearest_distance_m": 751.9, "osm_higher_education_count_h3": 1, "osm_higher_education_observed_h3": true, "osm_aviation_nearest_distance_m": 9319.2, "osm_aviation_count_h3": 0, "osm_aviation_observed_h3": false, "osm_industrial_nearest_distance_m": 793.8, "osm_industrial_count_h3": 3, "osm_industrial_observed_h3": true, "osm_selected_context_available": true}, "geometry": {"type": "Point", "coordinates": [13.0816617, 32.7337167]}}, {"id": "4", "type": "Feature", "properties": {"canonical_longitude": 13.0586948, "canonical_latitude": 32.7149947, "feature_version": "gis_v2_density_circles_geodesic_20260922", "population_density_1km": 639.4896240234375, "dist_to_nearest_road_m": 387.6418831485745, "municipality_name": "Aljfara", "population_sum_3km": 16896.937534904282, "population_observed_3km": 16896.937534904282, "population_valid_fraction_3km": 1.0, "population_sum_5km": 39674.27116540927, "population_observed_5km": 39674.27116540927, "population_valid_fraction_5km": 1.0, "elevation_m": 61.0, "elevation_prominence_3km": 0.424179191251973, "terrain_slope_deg": 0.12399494638939071, "dist_to_nearest_site_m": 3317.228103095894, "site_density_1km": 0, "site_density_3km": 0, "site_density_5km": 4, "site_density_10km": 86, "dist_to_libyana_site_m": 3317.228103095894, "dist_to_almadar_site_m": 5197.491851415383, "dist_to_nearest_settlement_m": 847.8158252472867, "inside_libya": true, "population_data_available": true, "terrain_data_available": true, "population_units": "people", "population_radius_m": 5000, "population_source_units": "people_per_km2", "operator_scope": "all", "source_lock_sha256": "3e5d6f9afadaac1f4d1aebe6539fcd69540c23446b0631b0e10c0cb4f9e74d10", "h3_r7": "87384b650ffffff", "h3_r6": "86384b657ffffff", "h3_index": "88384b6503fffff", "h3_resolution": 8, "building_height_m": null, "building_height_status": "Unavailable", "worldcover_class_code": 40, "worldcover_class_name": "Cropland", "worldcover_data_available": true, "worldcover_is_water": false, "candidate_source": "h3_r8_centre", "candidate_id": "candidate-6be36134271d", "rejection_reasons": "", "eligible": true, "demand_component": 0.9197, "known_site_gap_component": 0.0187, "road_access_component": 0.9031, "terrain_component": 0.748, "planning_priority_score": 62.8896, "score_version": "explainable-gis-v2-20260923", "reason_codes": "high_population_catchment;good_road_access", "candidate_status": "engineering_review", "recommendation_rank": 5, "worldcover_h3_coverage_pct": 99.9415, "worldcover_h3_dominant_class_code": 30, "worldcover_h3_dominant_class_name": "Grassland", "worldcover_h3_water_fraction": 0.0, "worldcover_h3_built_up_fraction": 0.241124, "worldcover_h3_bare_fraction": 0.014902, "worldcover_review_required": false, "osm_building_count_h3": 2, "osm_building_footprint_area_m2_h3": 546.48, "osm_building_coverage_ratio_h3": 9.2e-05, "osm_building_density_per_km2_h3": 0.3356, "osm_building_observed_h3": true, "osm_building_context_available": true, "osm_building_review_required": false, "osm_hospital_nearest_distance_m": 1150.2, "osm_hospital_count_h3": 0, "osm_hospital_observed_h3": false, "osm_higher_education_nearest_distance_m": 589.0, "osm_higher_education_count_h3": 0, "osm_higher_education_observed_h3": false, "osm_aviation_nearest_distance_m": 9513.2, "osm_aviation_count_h3": 0, "osm_aviation_observed_h3": false, "osm_industrial_nearest_distance_m": 2864.1, "osm_industrial_count_h3": 0, "osm_industrial_observed_h3": false, "osm_selected_context_available": true}, "geometry": {"type": "Point", "coordinates": [13.0586948, 32.7149947]}}, {"id": "5", "type": "Feature", "properties": {"canonical_longitude": 13.0453455, "canonical_latitude": 32.6291986, "feature_version": "gis_v2_density_circles_geodesic_20260922", "population_density_1km": 356.66278076171875, "dist_to_nearest_road_m": 115.04006033418099, "municipality_name": "Aljfara", "population_sum_3km": 6616.685144026544, "population_observed_3km": 6616.685144026544, "population_valid_fraction_3km": 1.0, "population_sum_5km": 16641.508427758377, "population_observed_5km": 16641.508427758377, "population_valid_fraction_5km": 1.0, "elevation_m": 90.0, "elevation_prominence_3km": 0.9819353253010377, "terrain_slope_deg": 0.8791369206779918, "dist_to_nearest_site_m": 3420.657049508667, "site_density_1km": 0, "site_density_3km": 0, "site_density_5km": 2, "site_density_10km": 15, "dist_to_libyana_site_m": 3420.657049508667, "dist_to_almadar_site_m": 8716.448633799506, "dist_to_nearest_settlement_m": 9466.494698594126, "inside_libya": true, "population_data_available": true, "terrain_data_available": true, "population_units": "people", "population_radius_m": 5000, "population_source_units": "people_per_km2", "operator_scope": "all", "source_lock_sha256": "3e5d6f9afadaac1f4d1aebe6539fcd69540c23446b0631b0e10c0cb4f9e74d10", "h3_r7": "87384b6eaffffff", "h3_r6": "86384b6efffffff", "h3_index": "88384b6ea5fffff", "h3_resolution": 8, "building_height_m": null, "building_height_status": "Unavailable", "worldcover_class_code": 30, "worldcover_class_name": "Grassland", "worldcover_data_available": true, "worldcover_is_water": false, "candidate_source": "h3_r8_centre", "candidate_id": "candidate-19eb32a24d1e", "rejection_reasons": "", "eligible": true, "demand_component": 0.8442, "known_site_gap_component": 0.0247, "road_access_component": 0.9712, "terrain_component": 0.7256, "planning_priority_score": 61.1929, "score_version": "explainable-gis-v2-20260923", "reason_codes": "high_population_catchment;good_road_access", "candidate_status": "engineering_review", "recommendation_rank": 6, "worldcover_h3_coverage_pct": 99.9381, "worldcover_h3_dominant_class_code": 40, "worldcover_h3_dominant_class_name": "Cropland", "worldcover_h3_water_fraction": 0.0, "worldcover_h3_built_up_fraction": 0.166929, "worldcover_h3_bare_fraction": 0.028756, "worldcover_review_required": false, "osm_building_count_h3": 5, "osm_building_footprint_area_m2_h3": 2465.6, "osm_building_coverage_ratio_h3": 0.000414, "osm_building_density_per_km2_h3": 0.8387, "osm_building_observed_h3": true, "osm_building_context_available": true, "osm_building_review_required": false, "osm_hospital_nearest_distance_m": 1205.4, "osm_hospital_count_h3": 1, "osm_hospital_observed_h3": true, "osm_higher_education_nearest_distance_m": 5769.3, "osm_higher_education_count_h3": 0, "osm_higher_education_observed_h3": false, "osm_aviation_nearest_distance_m": 10191.3, "osm_aviation_count_h3": 0, "osm_aviation_observed_h3": false, "osm_industrial_nearest_distance_m": 556.8, "osm_industrial_count_h3": 1, "osm_industrial_observed_h3": true, "osm_selected_context_available": true}, "geometry": {"type": "Point", "coordinates": [13.0453455, 32.6291986]}}, {"id": "6", "type": "Feature", "properties": {"canonical_longitude": 13.6310045, "canonical_latitude": 32.6237245, "feature_version": "gis_v2_density_circles_geodesic_20260922", "population_density_1km": 58.61948776245117, "dist_to_nearest_road_m": 127.55840289628186, "municipality_name": "Almargeb", "population_sum_3km": 1648.6464741878524, "population_observed_3km": 1648.6464741878524, "population_valid_fraction_3km": 0.9999999999999981, "population_sum_5km": 4846.877277108539, "population_observed_5km": 4846.877277108539, "population_valid_fraction_5km": 0.999999999999999, "elevation_m": 167.0, "elevation_prominence_3km": -7.882034421155794, "terrain_slope_deg": 1.5988173214629915, "dist_to_nearest_site_m": 4433.572110268518, "site_density_1km": 0, "site_density_3km": 0, "site_density_5km": 5, "site_density_10km": 17, "dist_to_libyana_site_m": 4433.572110268518, "dist_to_almadar_site_m": 4546.697525550145, "dist_to_nearest_settlement_m": 15264.670046432295, "inside_libya": true, "population_data_available": true, "terrain_data_available": true, "population_units": "people", "population_radius_m": 5000, "population_source_units": "people_per_km2", "operator_scope": "all", "source_lock_sha256": "3e5d6f9afadaac1f4d1aebe6539fcd69540c23446b0631b0e10c0cb4f9e74d10", "h3_r7": "873fa584effffff", "h3_r6": "863fa584fffffff", "h3_index": "883fa584edfffff", "h3_resolution": 8, "building_height_m": null, "building_height_status": "Unavailable", "worldcover_class_code": 40, "worldcover_class_name": "Cropland", "worldcover_data_available": true, "worldcover_is_water": false, "candidate_source": "h3_r8_centre", "candidate_id": "candidate-22f81c181380", "rejection_reasons": "", "eligible": true, "demand_component": 0.7371, "known_site_gap_component": 0.0843, "road_access_component": 0.9681, "terrain_component": 0.6573, "planning_priority_score": 57.9494, "score_version": "explainable-gis-v2-20260923", "reason_codes": "good_road_access", "candidate_status": "engineering_review", "recommendation_rank": 7, "worldcover_h3_coverage_pct": 99.942, "worldcover_h3_dominant_class_code": 30, "worldcover_h3_dominant_class_name": "Grassland", "worldcover_h3_water_fraction": 0.0, "worldcover_h3_built_up_fraction": 0.035819, "worldcover_h3_bare_fraction": 0.042557, "worldcover_review_required": false, "osm_building_count_h3": 288, "osm_building_footprint_area_m2_h3": 45198.7, "osm_building_coverage_ratio_h3": 0.007552, "osm_building_density_per_km2_h3": 48.1212, "osm_building_observed_h3": true, "osm_building_context_available": true, "osm_building_review_required": false, "osm_hospital_nearest_distance_m": 2932.3, "osm_hospital_count_h3": 0, "osm_hospital_observed_h3": false, "osm_higher_education_nearest_distance_m": 4244.7, "osm_higher_education_count_h3": 0, "osm_higher_education_observed_h3": false, "osm_aviation_nearest_distance_m": 35089.0, "osm_aviation_count_h3": 0, "osm_aviation_observed_h3": false, "osm_industrial_nearest_distance_m": 1142.8, "osm_industrial_count_h3": 0, "osm_industrial_observed_h3": false, "osm_selected_context_available": true}, "geometry": {"type": "Point", "coordinates": [13.6310045, 32.6237245]}}, {"id": "7", "type": "Feature", "properties": {"canonical_longitude": 13.3717181, "canonical_latitude": 32.8090073, "feature_version": "gis_v2_density_circles_geodesic_20260922", "population_density_1km": 984.5621948242188, "dist_to_nearest_road_m": 2005.627711739707, "municipality_name": "Tripoli", "population_sum_3km": 30992.29137223514, "population_observed_3km": 30992.29137223514, "population_valid_fraction_3km": 1.0, "population_sum_5km": 98252.7457379974, "population_observed_5km": 98252.7457379974, "population_valid_fraction_5km": 1.0, "elevation_m": 76.0, "elevation_prominence_3km": -5.841646589468425, "terrain_slope_deg": 1.3270156204710342, "dist_to_nearest_site_m": 3259.1806898649374, "site_density_1km": 0, "site_density_3km": 0, "site_density_5km": 13, "site_density_10km": 125, "dist_to_libyana_site_m": 3259.1806898649374, "dist_to_almadar_site_m": 3583.490146308661, "dist_to_nearest_settlement_m": 8448.05424273209, "inside_libya": true, "population_data_available": true, "terrain_data_available": true, "population_units": "people", "population_radius_m": 5000, "population_source_units": "people_per_km2", "operator_scope": "all", "source_lock_sha256": "3e5d6f9afadaac1f4d1aebe6539fcd69540c23446b0631b0e10c0cb4f9e74d10", "h3_r7": "873fa5929ffffff", "h3_r6": "863fa592fffffff", "h3_index": "883fa59295fffff", "h3_resolution": 8, "building_height_m": null, "building_height_status": "Unavailable", "worldcover_class_code": 40, "worldcover_class_name": "Cropland", "worldcover_data_available": true, "worldcover_is_water": false, "candidate_source": "h3_r8_centre", "candidate_id": "candidate-2bbb3561ef05", "rejection_reasons": "", "eligible": true, "demand_component": 0.9985, "known_site_gap_component": 0.0152, "road_access_component": 0.4986, "terrain_component": 0.6766, "planning_priority_score": 57.1336, "score_version": "explainable-gis-v2-20260923", "reason_codes": "high_population_catchment", "candidate_status": "engineering_review", "recommendation_rank": 8, "worldcover_h3_coverage_pct": 99.9484, "worldcover_h3_dominant_class_code": 30, "worldcover_h3_dominant_class_name": "Grassland", "worldcover_h3_water_fraction": 0.0, "worldcover_h3_built_up_fraction": 0.167971, "worldcover_h3_bare_fraction": 0.021031, "worldcover_review_required": false, "osm_building_count_h3": 529, "osm_building_footprint_area_m2_h3": 136829.16, "osm_building_coverage_ratio_h3": 0.022918, "osm_building_density_per_km2_h3": 88.6026, "osm_building_observed_h3": true, "osm_building_context_available": true, "osm_building_review_required": false, "osm_hospital_nearest_distance_m": 2349.9, "osm_hospital_count_h3": 0, "osm_hospital_observed_h3": false, "osm_higher_education_nearest_distance_m": 6257.8, "osm_higher_education_count_h3": 0, "osm_higher_education_observed_h3": false, "osm_aviation_nearest_distance_m": 12791.1, "osm_aviation_count_h3": 0, "osm_aviation_observed_h3": false, "osm_industrial_nearest_distance_m": 3972.0, "osm_industrial_count_h3": 0, "osm_industrial_observed_h3": false, "osm_selected_context_available": true}, "geometry": {"type": "Point", "coordinates": [13.3717181, 32.8090073]}}, {"id": "8", "type": "Feature", "properties": {"canonical_longitude": 13.3993114, "canonical_latitude": 32.7779609, "feature_version": "gis_v2_density_circles_geodesic_20260922", "population_density_1km": 761.4946899414062, "dist_to_nearest_road_m": 1843.0780850891583, "municipality_name": "Tripoli", "population_sum_3km": 20021.047078695945, "population_observed_3km": 20021.047078695945, "population_valid_fraction_3km": 1.0, "population_sum_5km": 55675.41673879278, "population_observed_5km": 55675.41673879278, "population_valid_fraction_5km": 0.9999999999999998, "elevation_m": 84.0, "elevation_prominence_3km": 1.109251519416091, "terrain_slope_deg": 0.2881663100799861, "dist_to_nearest_site_m": 3233.5541442566346, "site_density_1km": 0, "site_density_3km": 0, "site_density_5km": 10, "site_density_10km": 72, "dist_to_libyana_site_m": 3450.3378174095574, "dist_to_almadar_site_m": 3233.5541442566346, "dist_to_nearest_settlement_m": 12490.878644472768, "inside_libya": true, "population_data_available": true, "terrain_data_available": true, "population_units": "people", "population_radius_m": 5000, "population_source_units": "people_per_km2", "operator_scope": "all", "source_lock_sha256": "3e5d6f9afadaac1f4d1aebe6539fcd69540c23446b0631b0e10c0cb4f9e74d10", "h3_r7": "873fa5972ffffff", "h3_r6": "863fa5977ffffff", "h3_index": "883fa5972dfffff", "h3_resolution": 8, "building_height_m": null, "building_height_status": "Unavailable", "worldcover_class_code": 40, "worldcover_class_name": "Cropland", "worldcover_data_available": true, "worldcover_is_water": false, "candidate_source": "h3_r8_centre", "candidate_id": "candidate-479d4b6f0fa4", "rejection_reasons": "", "eligible": true, "demand_component": 0.9491, "known_site_gap_component": 0.0137, "road_access_component": 0.5392, "terrain_component": 0.7459, "planning_priority_score": 56.6215, "score_version": "explainable-gis-v2-20260923", "reason_codes": "high_population_catchment", "candidate_status": "engineering_review", "recommendation_rank": 9, "worldcover_h3_coverage_pct": 99.9449, "worldcover_h3_dominant_class_code": 30, "worldcover_h3_dominant_class_name": "Grassland", "worldcover_h3_water_fraction": 0.0, "worldcover_h3_built_up_fraction": 0.224304, "worldcover_h3_bare_fraction": 0.03489, "worldcover_review_required": false, "osm_building_count_h3": 1462, "osm_building_footprint_area_m2_h3": 230998.34, "osm_building_coverage_ratio_h3": 0.038677, "osm_building_density_per_km2_h3": 244.7869, "osm_building_observed_h3": true, "osm_building_context_available": true, "osm_building_review_required": false, "osm_hospital_nearest_distance_m": 550.7, "osm_hospital_count_h3": 0, "osm_hospital_observed_h3": false, "osm_higher_education_nearest_distance_m": 5312.4, "osm_higher_education_count_h3": 0, "osm_higher_education_observed_h3": false, "osm_aviation_nearest_distance_m": 17089.5, "osm_aviation_count_h3": 0, "osm_aviation_observed_h3": false, "osm_industrial_nearest_distance_m": 2677.6, "osm_industrial_count_h3": 0, "osm_industrial_observed_h3": false, "osm_selected_context_available": true}, "geometry": {"type": "Point", "coordinates": [13.3993114, 32.7779609]}}, {"id": "9", "type": "Feature", "properties": {"canonical_longitude": 13.0564882, "canonical_latitude": 32.75599, "feature_version": "gis_v2_density_circles_geodesic_20260922", "population_density_1km": 348.5715026855469, "dist_to_nearest_road_m": 1901.3506562170355, "municipality_name": "Aljfara", "population_sum_3km": 17869.23244835399, "population_observed_3km": 17869.23244835399, "population_valid_fraction_3km": 0.9999999999999991, "population_sum_5km": 55689.01443774808, "population_observed_5km": 55689.01443774808, "population_valid_fraction_5km": 0.9999999999999979, "elevation_m": 46.0, "elevation_prominence_3km": -2.526036691043849, "terrain_slope_deg": 0.0, "dist_to_nearest_site_m": 3093.307332084508, "site_density_1km": 0, "site_density_3km": 0, "site_density_5km": 29, "site_density_10km": 156, "dist_to_libyana_site_m": 3185.16201946683, "dist_to_almadar_site_m": 3093.307332084508, "dist_to_nearest_settlement_m": 4924.73465933264, "inside_libya": true, "population_data_available": true, "terrain_data_available": true, "population_units": "people", "population_radius_m": 5000, "population_source_units": "people_per_km2", "operator_scope": "all", "source_lock_sha256": "3e5d6f9afadaac1f4d1aebe6539fcd69540c23446b0631b0e10c0cb4f9e74d10", "h3_r7": "87384b673ffffff", "h3_r6": "86384b677ffffff", "h3_index": "88384b6733fffff", "h3_resolution": 8, "building_height_m": null, "building_height_status": "Unavailable", "worldcover_class_code": 40, "worldcover_class_name": "Cropland", "worldcover_data_available": true, "worldcover_is_water": false, "candidate_source": "h3_r8_centre", "candidate_id": "candidate-22ae66fbdb6d", "rejection_reasons": "", "eligible": true, "demand_component": 0.9492, "known_site_gap_component": 0.0055, "road_access_component": 0.5247, "terrain_component": 0.7374, "planning_priority_score": 55.9978, "score_version": "explainable-gis-v2-20260923", "reason_codes": "high_population_catchment", "candidate_status": "engineering_review", "recommendation_rank": 10, "worldcover_h3_coverage_pct": 99.9452, "worldcover_h3_dominant_class_code": 40, "worldcover_h3_dominant_class_name": "Cropland", "worldcover_h3_water_fraction": 0.0, "worldcover_h3_built_up_fraction": 0.267015, "worldcover_h3_bare_fraction": 0.022817, "worldcover_review_required": false, "osm_building_count_h3": 9, "osm_building_footprint_area_m2_h3": 2308.42, "osm_building_coverage_ratio_h3": 0.000387, "osm_building_density_per_km2_h3": 1.5105, "osm_building_observed_h3": true, "osm_building_context_available": true, "osm_building_review_required": false, "osm_hospital_nearest_distance_m": 2901.5, "osm_hospital_count_h3": 0, "osm_hospital_observed_h3": false, "osm_higher_education_nearest_distance_m": 3050.2, "osm_higher_education_count_h3": 0, "osm_higher_education_observed_h3": false, "osm_aviation_nearest_distance_m": 12727.2, "osm_aviation_count_h3": 0, "osm_aviation_observed_h3": false, "osm_industrial_nearest_distance_m": 1083.8, "osm_industrial_count_h3": 2, "osm_industrial_observed_h3": true, "osm_selected_context_available": true}, "geometry": {"type": "Point", "coordinates": [13.0564882, 32.75599]}}, {"id": "10", "type": "Feature", "properties": {"canonical_longitude": 13.0157515, "canonical_latitude": 32.733466, "feature_version": "gis_v2_density_circles_geodesic_20260922", "population_density_1km": 380.4336853027344, "dist_to_nearest_road_m": 1785.1266228069449, "municipality_name": "Aljfara", "population_sum_3km": 9162.885962240227, "population_observed_3km": 9162.885962240227, "population_valid_fraction_3km": 0.9999999999999991, "population_sum_5km": 29228.346603336882, "population_observed_5km": 29228.346603336882, "population_valid_fraction_5km": 1.0, "elevation_m": 59.0, "elevation_prominence_3km": 2.2569666969116966, "terrain_slope_deg": 0.12399457504206239, "dist_to_nearest_site_m": 3666.7632791602314, "site_density_1km": 0, "site_density_3km": 0, "site_density_5km": 7, "site_density_10km": 84, "dist_to_libyana_site_m": 4920.529086257603, "dist_to_almadar_site_m": 3666.7632791602314, "dist_to_nearest_settlement_m": 5357.4691202948015, "inside_libya": true, "population_data_available": true, "terrain_data_available": true, "population_units": "people", "population_radius_m": 5000, "population_source_units": "people_per_km2", "operator_scope": "all", "source_lock_sha256": "3e5d6f9afadaac1f4d1aebe6539fcd69540c23446b0631b0e10c0cb4f9e74d10", "h3_r7": "87384b609ffffff", "h3_r6": "86384b60fffffff", "h3_index": "88384b6093fffff", "h3_resolution": 8, "building_height_m": null, "building_height_status": "Unavailable", "worldcover_class_code": 30, "worldcover_class_name": "Grassland", "worldcover_data_available": true, "worldcover_is_water": false, "candidate_source": "h3_r8_centre", "candidate_id": "candidate-106242330329", "rejection_reasons": "", "eligible": true, "demand_component": 0.8932, "known_site_gap_component": 0.0392, "road_access_component": 0.5537, "terrain_component": 0.7572, "planning_priority_score": 55.549, "score_version": "explainable-gis-v2-20260923", "reason_codes": "high_population_catchment", "candidate_status": "engineering_review", "recommendation_rank": 11, "worldcover_h3_coverage_pct": 99.9419, "worldcover_h3_dominant_class_code": 30, "worldcover_h3_dominant_class_name": "Grassland", "worldcover_h3_water_fraction": 0.0, "worldcover_h3_built_up_fraction": 0.23796, "worldcover_h3_bare_fraction": 0.014674, "worldcover_review_required": false, "osm_building_count_h3": 6, "osm_building_footprint_area_m2_h3": 6336.53, "osm_building_coverage_ratio_h3": 0.001064, "osm_building_density_per_km2_h3": 1.0072, "osm_building_observed_h3": true, "osm_building_context_available": true, "osm_building_review_required": false, "osm_hospital_nearest_distance_m": 4126.4, "osm_hospital_count_h3": 0, "osm_hospital_observed_h3": false, "osm_higher_education_nearest_distance_m": 3860.7, "osm_higher_education_count_h3": 0, "osm_higher_education_observed_h3": false, "osm_aviation_nearest_distance_m": 14008.1, "osm_aviation_count_h3": 0, "osm_aviation_observed_h3": false, "osm_industrial_nearest_distance_m": 1500.2, "osm_industrial_count_h3": 0, "osm_industrial_observed_h3": false, "osm_selected_context_available": true}, "geometry": {"type": "Point", "coordinates": [13.0157515, 32.733466]}}, {"id": "11", "type": "Feature", "properties": {"canonical_longitude": 13.0308058, "canonical_latitude": 32.7136464, "feature_version": "gis_v2_density_circles_geodesic_20260922", "population_density_1km": 182.083740234375, "dist_to_nearest_road_m": 2369.679153009838, "municipality_name": "Aljfara", "population_sum_3km": 9413.972276508692, "population_observed_3km": 9413.972276508692, "population_valid_fraction_3km": 0.9999999999999987, "population_sum_5km": 31327.251635531073, "population_observed_5km": 31327.251635531073, "population_valid_fraction_5km": 1.0, "elevation_m": 62.0, "elevation_prominence_3km": -0.20333201410241486, "terrain_slope_deg": 0.39985029980583325, "dist_to_nearest_site_m": 4053.4441044245277, "site_density_1km": 0, "site_density_3km": 0, "site_density_5km": 2, "site_density_10km": 47, "dist_to_libyana_site_m": 4053.4441044245277, "dist_to_almadar_site_m": 6102.14333738561, "dist_to_nearest_settlement_m": 3419.3435456588454, "inside_libya": true, "population_data_available": true, "terrain_data_available": true, "population_units": "people", "population_radius_m": 5000, "population_source_units": "people_per_km2", "operator_scope": "all", "source_lock_sha256": "3e5d6f9afadaac1f4d1aebe6539fcd69540c23446b0631b0e10c0cb4f9e74d10", "h3_r7": "87384b656ffffff", "h3_r6": "86384b657ffffff", "h3_index": "88384b6563fffff", "h3_resolution": 8, "building_height_m": null, "building_height_status": "Unavailable", "worldcover_class_code": 60, "worldcover_class_name": "Bare / sparse vegetation", "worldcover_data_available": true, "worldcover_is_water": false, "candidate_source": "h3_r8_centre", "candidate_id": "candidate-1d8a5c39b11a", "rejection_reasons": "", "eligible": true, "demand_component": 0.8992, "known_site_gap_component": 0.062, "road_access_component": 0.4076, "terrain_component": 0.7357, "planning_priority_score": 53.3346, "score_version": "explainable-gis-v2-20260923", "reason_codes": "high_population_catchment;mapped_building_context_missing_review", "candidate_status": "engineering_review", "recommendation_rank": 12, "worldcover_h3_coverage_pct": 99.9482, "worldcover_h3_dominant_class_code": 30, "worldcover_h3_dominant_class_name": "Grassland", "worldcover_h3_water_fraction": 0.0, "worldcover_h3_built_up_fraction": 0.103032, "worldcover_h3_bare_fraction": 0.043792, "worldcover_review_required": false, "osm_building_count_h3": 0, "osm_building_footprint_area_m2_h3": 0.0, "osm_building_coverage_ratio_h3": 0.0, "osm_building_density_per_km2_h3": 0.0, "osm_building_observed_h3": false, "osm_building_context_available": true, "osm_building_review_required": true, "osm_hospital_nearest_distance_m": 3258.1, "osm_hospital_count_h3": 0, "osm_hospital_observed_h3": false, "osm_higher_education_nearest_distance_m": 3202.4, "osm_higher_education_count_h3": 0, "osm_higher_education_observed_h3": false, "osm_aviation_nearest_distance_m": 11720.1, "osm_aviation_count_h3": 0, "osm_aviation_observed_h3": false, "osm_industrial_nearest_distance_m": 2069.2, "osm_industrial_count_h3": 0, "osm_industrial_observed_h3": false, "osm_selected_context_available": true}, "geometry": {"type": "Point", "coordinates": [13.0308058, 32.7136464]}}, {"id": "12", "type": "Feature", "properties": {"canonical_longitude": 12.9541312, "canonical_latitude": 32.6188966, "feature_version": "gis_v2_density_circles_geodesic_20260922", "population_density_1km": 132.9248809814453, "dist_to_nearest_road_m": 2735.0585546659513, "municipality_name": "Aljfara", "population_sum_3km": 4392.761898632439, "population_observed_3km": 4392.761898632439, "population_valid_fraction_3km": 0.9999999999999972, "population_sum_5km": 11593.434227346563, "population_observed_5km": 11593.434227346563, "population_valid_fraction_5km": 1.0, "elevation_m": 88.0, "elevation_prominence_3km": -1.2123910773311053, "terrain_slope_deg": 0.6941236008036347, "dist_to_nearest_site_m": 6802.5710416441125, "site_density_1km": 0, "site_density_3km": 0, "site_density_5km": 0, "site_density_10km": 12, "dist_to_libyana_site_m": 6802.5710416441125, "dist_to_almadar_site_m": 7677.8943033100495, "dist_to_nearest_settlement_m": 10079.512426526771, "inside_libya": true, "population_data_available": true, "terrain_data_available": true, "population_units": "people", "population_radius_m": 5000, "population_source_units": "people_per_km2", "operator_scope": "all", "source_lock_sha256": "3e5d6f9afadaac1f4d1aebe6539fcd69540c23446b0631b0e10c0cb4f9e74d10", "h3_r7": "87384b6f3ffffff", "h3_r6": "86384b6f7ffffff", "h3_index": "88384b6f39fffff", "h3_resolution": 8, "building_height_m": null, "building_height_status": "Unavailable", "worldcover_class_code": 30, "worldcover_class_name": "Grassland", "worldcover_data_available": true, "worldcover_is_water": false, "candidate_source": "h3_r8_centre", "candidate_id": "candidate-c5037f11e1c2", "rejection_reasons": "", "eligible": true, "demand_component": 0.8128, "known_site_gap_component": 0.2237, "road_access_component": 0.3162, "terrain_component": 0.7208, "planning_priority_score": 52.7571, "score_version": "explainable-gis-v2-20260923", "reason_codes": "high_population_catchment", "candidate_status": "engineering_review", "recommendation_rank": 13, "worldcover_h3_coverage_pct": 99.9389, "worldcover_h3_dominant_class_code": 30, "worldcover_h3_dominant_class_name": "Grassland", "worldcover_h3_water_fraction": 0.0, "worldcover_h3_built_up_fraction": 0.061646, "worldcover_h3_bare_fraction": 0.129203, "worldcover_review_required": false, "osm_building_count_h3": 1, "osm_building_footprint_area_m2_h3": 1606.75, "osm_building_coverage_ratio_h3": 0.00027, "osm_building_density_per_km2_h3": 0.1678, "osm_building_observed_h3": true, "osm_building_context_available": true, "osm_building_review_required": false, "osm_hospital_nearest_distance_m": 1668.2, "osm_hospital_count_h3": 0, "osm_hospital_observed_h3": false, "osm_higher_education_nearest_distance_m": 9595.2, "osm_higher_education_count_h3": 0, "osm_higher_education_observed_h3": false, "osm_aviation_nearest_distance_m": 18589.6, "osm_aviation_count_h3": 0, "osm_aviation_observed_h3": false, "osm_industrial_nearest_distance_m": 6149.1, "osm_industrial_count_h3": 0, "osm_industrial_observed_h3": false, "osm_selected_context_available": true}, "geometry": {"type": "Point", "coordinates": [12.9541312, 32.6188966]}}, {"id": "13", "type": "Feature", "properties": {"canonical_longitude": 13.0226603, "canonical_latitude": 32.6427852, "feature_version": "gis_v2_density_circles_geodesic_20260922", "population_density_1km": 175.86570739746094, "dist_to_nearest_road_m": 1937.5995896909149, "municipality_name": "Aljfara", "population_sum_3km": 6563.575368363319, "population_observed_3km": 6563.575368363319, "population_valid_fraction_3km": 0.9999999999999959, "population_sum_5km": 18606.016640941813, "population_observed_5km": 18606.016640941813, "population_valid_fraction_5km": 0.9999999999999992, "elevation_m": 94.0, "elevation_prominence_3km": 6.77695665119343, "terrain_slope_deg": 0.637042892291576, "dist_to_nearest_site_m": 3193.8155075693285, "site_density_1km": 0, "site_density_3km": 0, "site_density_5km": 4, "site_density_10km": 9, "dist_to_libyana_site_m": 3193.8155075693285, "dist_to_almadar_site_m": 10354.485384734251, "dist_to_nearest_settlement_m": 8792.502033634646, "inside_libya": true, "population_data_available": true, "terrain_data_available": true, "population_units": "people", "population_radius_m": 5000, "population_source_units": "people_per_km2", "operator_scope": "all", "source_lock_sha256": "3e5d6f9afadaac1f4d1aebe6539fcd69540c23446b0631b0e10c0cb4f9e74d10", "h3_r7": "87384b6c5ffffff", "h3_r6": "86384b6c7ffffff", "h3_index": "88384b6c59fffff", "h3_resolution": 8, "building_height_m": null, "building_height_status": "Unavailable", "worldcover_class_code": 30, "worldcover_class_name": "Grassland", "worldcover_data_available": true, "worldcover_is_water": false, "candidate_source": "h3_r8_centre", "candidate_id": "candidate-6d9c7b03ec7b", "rejection_reasons": "", "eligible": true, "demand_component": 0.8539, "known_site_gap_component": 0.0114, "road_access_component": 0.5156, "terrain_component": 0.7627, "planning_priority_score": 52.4379, "score_version": "explainable-gis-v2-20260923", "reason_codes": "high_population_catchment", "candidate_status": "engineering_review", "recommendation_rank": 14, "worldcover_h3_coverage_pct": 99.9388, "worldcover_h3_dominant_class_code": 40, "worldcover_h3_dominant_class_name": "Cropland", "worldcover_h3_water_fraction": 0.0, "worldcover_h3_built_up_fraction": 0.119979, "worldcover_h3_bare_fraction": 0.046717, "worldcover_review_required": false, "osm_building_count_h3": 2, "osm_building_footprint_area_m2_h3": 891.16, "osm_building_coverage_ratio_h3": 0.00015, "osm_building_density_per_km2_h3": 0.3356, "osm_building_observed_h3": true, "osm_building_context_available": true, "osm_building_review_required": false, "osm_hospital_nearest_distance_m": 2803.0, "osm_hospital_count_h3": 0, "osm_hospital_observed_h3": false, "osm_higher_education_nearest_distance_m": 4506.2, "osm_higher_education_count_h3": 0, "osm_higher_education_observed_h3": false, "osm_aviation_nearest_distance_m": 11691.3, "osm_aviation_count_h3": 0, "osm_aviation_observed_h3": false, "osm_industrial_nearest_distance_m": 1008.5, "osm_industrial_count_h3": 2, "osm_industrial_observed_h3": true, "osm_selected_context_available": true}, "geometry": {"type": "Point", "coordinates": [13.0226603, 32.6427852]}}, {"id": "14", "type": "Feature", "properties": {"canonical_longitude": 13.0707513, "canonical_latitude": 32.6392306, "feature_version": "gis_v2_density_circles_geodesic_20260922", "population_density_1km": 224.12913513183594, "dist_to_nearest_road_m": 1981.3060451888457, "municipality_name": "Aljfara", "population_sum_3km": 5964.776440521409, "population_observed_3km": 5964.776440521409, "population_valid_fraction_3km": 0.9999999999999981, "population_sum_5km": 17761.200649760514, "population_observed_5km": 17761.200649760514, "population_valid_fraction_5km": 1.0, "elevation_m": 84.0, "elevation_prominence_3km": -0.1552495603460926, "terrain_slope_deg": 0.28805482463566584, "dist_to_nearest_site_m": 3088.5265219089856, "site_density_1km": 0, "site_density_3km": 0, "site_density_5km": 2, "site_density_10km": 38, "dist_to_libyana_site_m": 3088.5265219089856, "dist_to_almadar_site_m": 7586.025478268315, "dist_to_nearest_settlement_m": 8134.869368307444, "inside_libya": true, "population_data_available": true, "terrain_data_available": true, "population_units": "people", "population_radius_m": 5000, "population_source_units": "people_per_km2", "operator_scope": "all", "source_lock_sha256": "3e5d6f9afadaac1f4d1aebe6539fcd69540c23446b0631b0e10c0cb4f9e74d10", "h3_r7": "87384b6ebffffff", "h3_r6": "86384b6efffffff", "h3_index": "88384b6ebdfffff", "h3_resolution": 8, "building_height_m": null, "building_height_status": "Unavailable", "worldcover_class_code": 50, "worldcover_class_name": "Built-up", "worldcover_data_available": true, "worldcover_is_water": false, "candidate_source": "h3_r8_centre", "candidate_id": "candidate-d4dd7dc1283f", "rejection_reasons": "", "eligible": true, "demand_component": 0.8499, "known_site_gap_component": 0.0052, "road_access_component": 0.5047, "terrain_component": 0.7396, "planning_priority_score": 51.6419, "score_version": "explainable-gis-v2-20260923", "reason_codes": "high_population_catchment", "candidate_status": "engineering_review", "recommendation_rank": 15, "worldcover_h3_coverage_pct": 99.9436, "worldcover_h3_dominant_class_code": 40, "worldcover_h3_dominant_class_name": "Cropland", "worldcover_h3_water_fraction": 0.0, "worldcover_h3_built_up_fraction": 0.110809, "worldcover_h3_bare_fraction": 0.058441, "worldcover_review_required": false, "osm_building_count_h3": 4, "osm_building_footprint_area_m2_h3": 1985.92, "osm_building_coverage_ratio_h3": 0.000333, "osm_building_density_per_km2_h3": 0.6709, "osm_building_observed_h3": true, "osm_building_context_available": true, "osm_building_review_required": false, "osm_hospital_nearest_distance_m": 580.2, "osm_hospital_count_h3": 0, "osm_hospital_observed_h3": false, "osm_higher_education_nearest_distance_m": 5485.6, "osm_higher_education_count_h3": 0, "osm_higher_education_observed_h3": false, "osm_aviation_nearest_distance_m": 7563.8, "osm_aviation_count_h3": 0, "osm_aviation_observed_h3": false, "osm_industrial_nearest_distance_m": 3118.8, "osm_industrial_count_h3": 0, "osm_industrial_observed_h3": false, "osm_selected_context_available": true}, "geometry": {"type": "Point", "coordinates": [13.0707513, 32.6392306]}}, {"id": "15", "type": "Feature", "properties": {"canonical_longitude": 13.5196691, "canonical_latitude": 32.6511635, "feature_version": "gis_v2_density_circles_geodesic_20260922", "population_density_1km": 85.6663818359375, "dist_to_nearest_road_m": 1270.4745540881593, "municipality_name": "Almargeb", "population_sum_3km": 1913.9655072496637, "population_observed_3km": 1913.9655072496637, "population_valid_fraction_3km": 1.0, "population_sum_5km": 5163.627888330497, "population_observed_5km": 5163.627888330497, "population_valid_fraction_5km": 0.999999999999999, "elevation_m": 129.0, "elevation_prominence_3km": 4.679644524027253, "terrain_slope_deg": 1.4705955567639553, "dist_to_nearest_site_m": 3154.466791147758, "site_density_1km": 0, "site_density_3km": 0, "site_density_5km": 6, "site_density_10km": 29, "dist_to_libyana_site_m": 3478.5109767193785, "dist_to_almadar_site_m": 3154.466791147758, "dist_to_nearest_settlement_m": 20762.31190147037, "inside_libya": true, "population_data_available": true, "terrain_data_available": true, "population_units": "people", "population_radius_m": 5000, "population_source_units": "people_per_km2", "operator_scope": "all", "source_lock_sha256": "3e5d6f9afadaac1f4d1aebe6539fcd69540c23446b0631b0e10c0cb4f9e74d10", "h3_r7": "873fa5870ffffff", "h3_r6": "863fa5877ffffff", "h3_index": "883fa58705fffff", "h3_resolution": 8, "building_height_m": null, "building_height_status": "Unavailable", "worldcover_class_code": 40, "worldcover_class_name": "Cropland", "worldcover_data_available": true, "worldcover_is_water": false, "candidate_source": "h3_r8_centre", "candidate_id": "candidate-5d8ea8b9e3fd", "rejection_reasons": "", "eligible": true, "demand_component": 0.7426, "known_site_gap_component": 0.0091, "road_access_component": 0.6824, "terrain_component": 0.7244, "planning_priority_score": 50.8683, "score_version": "explainable-gis-v2-20260923", "reason_codes": "meets_minimum_planning_constraints", "candidate_status": "engineering_review", "recommendation_rank": 16, "worldcover_h3_coverage_pct": 99.9401, "worldcover_h3_dominant_class_code": 30, "worldcover_h3_dominant_class_name": "Grassland", "worldcover_h3_water_fraction": 0.0, "worldcover_h3_built_up_fraction": 0.015624, "worldcover_h3_bare_fraction": 0.163015, "worldcover_review_required": false, "osm_building_count_h3": 116, "osm_building_footprint_area_m2_h3": 27778.24, "osm_building_coverage_ratio_h3": 0.004645, "osm_building_density_per_km2_h3": 19.3989, "osm_building_observed_h3": true, "osm_building_context_available": true, "osm_building_review_required": false, "osm_hospital_nearest_distance_m": 4786.1, "osm_hospital_count_h3": 0, "osm_hospital_observed_h3": false, "osm_higher_education_nearest_distance_m": 13616.2, "osm_higher_education_count_h3": 0, "osm_higher_education_observed_h3": false, "osm_aviation_nearest_distance_m": 27766.4, "osm_aviation_count_h3": 0, "osm_aviation_observed_h3": false, "osm_industrial_nearest_distance_m": 3403.0, "osm_industrial_count_h3": 0, "osm_industrial_observed_h3": false, "osm_selected_context_available": true}, "geometry": {"type": "Point", "coordinates": [13.5196691, 32.6511635]}}, {"id": "16", "type": "Feature", "properties": {"canonical_longitude": 12.9999713, "canonical_latitude": 32.6563658, "feature_version": "gis_v2_density_circles_geodesic_20260922", "population_density_1km": 143.05169677734375, "dist_to_nearest_road_m": 2129.7018144654307, "municipality_name": "Aljfara", "population_sum_3km": 5526.100275707533, "population_observed_3km": 5526.100275707533, "population_valid_fraction_3km": 1.0, "population_sum_5km": 17824.37536254461, "population_observed_5km": 17824.37536254461, "population_valid_fraction_5km": 1.0, "elevation_m": 86.0, "elevation_prominence_3km": -0.009931485790929173, "terrain_slope_deg": 0.6943288653138381, "dist_to_nearest_site_m": 3062.1187518891034, "site_density_1km": 0, "site_density_3km": 0, "site_density_5km": 3, "site_density_10km": 13, "dist_to_libyana_site_m": 3062.1187518891034, "dist_to_almadar_site_m": 8299.327566503573, "dist_to_nearest_settlement_m": 8865.862498451761, "inside_libya": true, "population_data_available": true, "terrain_data_available": true, "population_units": "people", "population_radius_m": 5000, "population_source_units": "people_per_km2", "operator_scope": "all", "source_lock_sha256": "3e5d6f9afadaac1f4d1aebe6539fcd69540c23446b0631b0e10c0cb4f9e74d10", "h3_r7": "87384b6e3ffffff", "h3_r6": "86384b6e7ffffff", "h3_index": "88384b6e3dfffff", "h3_resolution": 8, "building_height_m": null, "building_height_status": "Unavailable", "worldcover_class_code": 30, "worldcover_class_name": "Grassland", "worldcover_data_available": true, "worldcover_is_water": false, "candidate_source": "h3_r8_centre", "candidate_id": "candidate-79151bc2c1e9", "rejection_reasons": "", "eligible": true, "demand_component": 0.8502, "known_site_gap_component": 0.0037, "road_access_component": 0.4676, "terrain_component": 0.7268, "planning_priority_score": 50.7375, "score_version": "explainable-gis-v2-20260923", "reason_codes": "high_population_catchment", "candidate_status": "engineering_review", "recommendation_rank": 17, "worldcover_h3_coverage_pct": 99.9396, "worldcover_h3_dominant_class_code": 40, "worldcover_h3_dominant_class_name": "Cropland", "worldcover_h3_water_fraction": 0.0, "worldcover_h3_built_up_fraction": 0.14781, "worldcover_h3_bare_fraction": 0.104657, "worldcover_review_required": false, "osm_building_count_h3": 1, "osm_building_footprint_area_m2_h3": 3508.12, "osm_building_coverage_ratio_h3": 0.000589, "osm_building_density_per_km2_h3": 0.1678, "osm_building_observed_h3": true, "osm_building_context_available": true, "osm_building_review_required": false, "osm_hospital_nearest_distance_m": 3034.4, "osm_hospital_count_h3": 0, "osm_hospital_observed_h3": false, "osm_higher_education_nearest_distance_m": 4573.4, "osm_higher_education_count_h3": 0, "osm_higher_education_observed_h3": false, "osm_aviation_nearest_distance_m": 13531.2, "osm_aviation_count_h3": 0, "osm_aviation_observed_h3": false, "osm_industrial_nearest_distance_m": 1760.9, "osm_industrial_count_h3": 1, "osm_industrial_observed_h3": true, "osm_selected_context_available": true}, "geometry": {"type": "Point", "coordinates": [12.9999713, 32.6563658]}}, {"id": "17", "type": "Feature", "properties": {"canonical_longitude": 13.0887819, "canonical_latitude": 32.675334, "feature_version": "gis_v2_density_circles_geodesic_20260922", "population_density_1km": 294.9029541015625, "dist_to_nearest_road_m": 2732.9270813467897, "municipality_name": "Aljfara", "population_sum_3km": 9051.303740864569, "population_observed_3km": 9051.303740864569, "population_valid_fraction_3km": 1.0, "population_sum_5km": 30120.357806078824, "population_observed_5km": 30120.357806078824, "population_valid_fraction_5km": 1.0, "elevation_m": 71.0, "elevation_prominence_3km": -0.9861875382712384, "terrain_slope_deg": 0.45696190760287003, "dist_to_nearest_site_m": 3339.5178875067636, "site_density_1km": 0, "site_density_3km": 0, "site_density_5km": 10, "site_density_10km": 49, "dist_to_libyana_site_m": 3399.052690558798, "dist_to_almadar_site_m": 3339.5178875067636, "dist_to_nearest_settlement_m": 4592.042194356968, "inside_libya": true, "population_data_available": true, "terrain_data_available": true, "population_units": "people", "population_radius_m": 5000, "population_source_units": "people_per_km2", "operator_scope": "all", "source_lock_sha256": "3e5d6f9afadaac1f4d1aebe6539fcd69540c23446b0631b0e10c0cb4f9e74d10", "h3_r7": "87384b6edffffff", "h3_r6": "86384b6efffffff", "h3_index": "88384b6ed3fffff", "h3_resolution": 8, "building_height_m": null, "building_height_status": "Unavailable", "worldcover_class_code": 40, "worldcover_class_name": "Cropland", "worldcover_data_available": true, "worldcover_is_water": false, "candidate_source": "h3_r8_centre", "candidate_id": "candidate-b3b6ac714454", "rejection_reasons": "", "eligible": true, "demand_component": 0.8958, "known_site_gap_component": 0.02, "road_access_component": 0.3168, "terrain_component": 0.7298, "planning_priority_score": 50.0638, "score_version": "explainable-gis-v2-20260923", "reason_codes": "high_population_catchment", "candidate_status": "engineering_review", "recommendation_rank": 18, "worldcover_h3_coverage_pct": 99.9422, "worldcover_h3_dominant_class_code": 40, "worldcover_h3_dominant_class_name": "Cropland", "worldcover_h3_water_fraction": 0.0, "worldcover_h3_built_up_fraction": 0.209991, "worldcover_h3_bare_fraction": 0.056088, "worldcover_review_required": false, "osm_building_count_h3": 3, "osm_building_footprint_area_m2_h3": 2395.24, "osm_building_coverage_ratio_h3": 0.000402, "osm_building_density_per_km2_h3": 0.5032, "osm_building_observed_h3": true, "osm_building_context_available": true, "osm_building_review_required": false, "osm_hospital_nearest_distance_m": 3885.0, "osm_hospital_count_h3": 0, "osm_hospital_observed_h3": false, "osm_higher_education_nearest_distance_m": 3229.7, "osm_higher_education_count_h3": 0, "osm_higher_education_observed_h3": false, "osm_aviation_nearest_distance_m": 5212.5, "osm_aviation_count_h3": 0, "osm_aviation_observed_h3": false, "osm_industrial_nearest_distance_m": 2064.4, "osm_industrial_count_h3": 1, "osm_industrial_observed_h3": true, "osm_selected_context_available": true}, "geometry": {"type": "Point", "coordinates": [13.0887819, 32.675334]}}, {"id": "18", "type": "Feature", "properties": {"canonical_longitude": 13.068027, "canonical_latitude": 32.6156061, "feature_version": "gis_v2_density_circles_geodesic_20260922", "population_density_1km": 131.66160583496094, "dist_to_nearest_road_m": 2373.64430978707, "municipality_name": "Aljfara", "population_sum_3km": 4660.350758387583, "population_observed_3km": 4660.350758387583, "population_valid_fraction_3km": 1.0, "population_sum_5km": 14251.966795637933, "population_observed_5km": 14251.966795637933, "population_valid_fraction_5km": 0.9999999999999984, "elevation_m": 96.0, "elevation_prominence_3km": 3.250522403000474, "terrain_slope_deg": 0.8640516020011552, "dist_to_nearest_site_m": 3733.3826751328934, "site_density_1km": 0, "site_density_3km": 0, "site_density_5km": 1, "site_density_10km": 19, "dist_to_libyana_site_m": 3733.3826751328934, "dist_to_almadar_site_m": 6119.445021789848, "dist_to_nearest_settlement_m": 10748.40056881853, "inside_libya": true, "population_data_available": true, "terrain_data_available": true, "population_units": "people", "population_radius_m": 5000, "population_source_units": "people_per_km2", "operator_scope": "all", "source_lock_sha256": "3e5d6f9afadaac1f4d1aebe6539fcd69540c23446b0631b0e10c0cb4f9e74d10", "h3_r7": "87384b6ccffffff", "h3_r6": "86384b6cfffffff", "h3_index": "88384b6cc1fffff", "h3_resolution": 8, "building_height_m": null, "building_height_status": "Unavailable", "worldcover_class_code": 50, "worldcover_class_name": "Built-up", "worldcover_data_available": true, "worldcover_is_water": false, "candidate_source": "h3_r8_centre", "candidate_id": "candidate-8657a0f31d4e", "rejection_reasons": "", "eligible": true, "demand_component": 0.8308, "known_site_gap_component": 0.0431, "road_access_component": 0.4066, "terrain_component": 0.7375, "planning_priority_score": 50.0317, "score_version": "explainable-gis-v2-20260923", "reason_codes": "high_population_catchment", "candidate_status": "engineering_review", "recommendation_rank": 19, "worldcover_h3_coverage_pct": 99.9422, "worldcover_h3_dominant_class_code": 40, "worldcover_h3_dominant_class_name": "Cropland", "worldcover_h3_water_fraction": 0.0, "worldcover_h3_built_up_fraction": 0.054917, "worldcover_h3_bare_fraction": 0.037533, "worldcover_review_required": false, "osm_building_count_h3": 22, "osm_building_footprint_area_m2_h3": 17475.26, "osm_building_coverage_ratio_h3": 0.002931, "osm_building_density_per_km2_h3": 3.6898, "osm_building_observed_h3": true, "osm_building_context_available": true, "osm_building_review_required": false, "osm_hospital_nearest_distance_m": 2520.4, "osm_hospital_count_h3": 0, "osm_hospital_observed_h3": false, "osm_higher_education_nearest_distance_m": 7736.7, "osm_higher_education_count_h3": 0, "osm_higher_education_observed_h3": false, "osm_aviation_nearest_distance_m": 9199.3, "osm_aviation_count_h3": 0, "osm_aviation_observed_h3": false, "osm_industrial_nearest_distance_m": 3102.8, "osm_industrial_count_h3": 0, "osm_industrial_observed_h3": false, "osm_selected_context_available": true}, "geometry": {"type": "Point", "coordinates": [13.068027, 32.6156061]}}, {"id": "19", "type": "Feature", "properties": {"canonical_longitude": 13.3689148, "canonical_latitude": 32.7853827, "feature_version": "gis_v2_density_circles_geodesic_20260922", "population_density_1km": 750.4249877929688, "dist_to_nearest_road_m": 3590.366314133213, "municipality_name": "Tripoli", "population_sum_3km": 24765.37671296833, "population_observed_3km": 24765.37671296833, "population_valid_fraction_3km": 0.9999999999999974, "population_sum_5km": 72222.92925330027, "population_observed_5km": 72222.92925330027, "population_valid_fraction_5km": 1.0, "elevation_m": 90.0, "elevation_prominence_3km": 11.564445988905263, "terrain_slope_deg": 1.344805056960901, "dist_to_nearest_site_m": 3359.0705864539977, "site_density_1km": 0, "site_density_3km": 0, "site_density_5km": 7, "site_density_10km": 87, "dist_to_libyana_site_m": 3359.0705864539977, "dist_to_almadar_site_m": 4801.033373126878, "dist_to_nearest_settlement_m": 9794.256546574152, "inside_libya": true, "population_data_available": true, "terrain_data_available": true, "population_units": "people", "population_radius_m": 5000, "population_source_units": "people_per_km2", "operator_scope": "all", "source_lock_sha256": "3e5d6f9afadaac1f4d1aebe6539fcd69540c23446b0631b0e10c0cb4f9e74d10", "h3_r7": "873fa592bffffff", "h3_r6": "863fa592fffffff", "h3_index": "883fa592b7fffff", "h3_resolution": 8, "building_height_m": null, "building_height_status": "Unavailable", "worldcover_class_code": 40, "worldcover_class_name": "Cropland", "worldcover_data_available": true, "worldcover_is_water": false, "candidate_source": "h3_r8_centre", "candidate_id": "candidate-36a5779089a2", "rejection_reasons": "", "eligible": true, "demand_component": 0.9717, "known_site_gap_component": 0.0211, "road_access_component": 0.1024, "terrain_component": 0.763, "planning_priority_score": 49.1812, "score_version": "explainable-gis-v2-20260923", "reason_codes": "high_population_catchment", "candidate_status": "engineering_review", "recommendation_rank": 20, "worldcover_h3_coverage_pct": 99.9442, "worldcover_h3_dominant_class_code": 30, "worldcover_h3_dominant_class_name": "Grassland", "worldcover_h3_water_fraction": 0.0, "worldcover_h3_built_up_fraction": 0.292093, "worldcover_h3_bare_fraction": 0.056969, "worldcover_review_required": false, "osm_building_count_h3": 1445, "osm_building_footprint_area_m2_h3": 234739.14, "osm_building_coverage_ratio_h3": 0.039317, "osm_building_density_per_km2_h3": 242.0257, "osm_building_observed_h3": true, "osm_building_context_available": true, "osm_building_review_required": false, "osm_hospital_nearest_distance_m": 2412.5, "osm_hospital_count_h3": 0, "osm_hospital_observed_h3": false, "osm_higher_education_nearest_distance_m": 4010.7, "osm_higher_education_count_h3": 0, "osm_higher_education_observed_h3": false, "osm_aviation_nearest_distance_m": 14713.1, "osm_aviation_count_h3": 0, "osm_aviation_observed_h3": false, "osm_industrial_nearest_distance_m": 2731.1, "osm_industrial_count_h3": 0, "osm_industrial_observed_h3": false, "osm_selected_context_available": true}, "geometry": {"type": "Point", "coordinates": [13.3689148, 32.7853827]}}]}