{
"type": "FeatureCollection",
"name": "lby_adminpoints",
"crs": { "type": "name", "properties": { "name": "urn:ogc:def:crs:OGC:1.3:CRS84" } },
"features": [
{ "type": "Feature", "properties": { "admin_level": 0, "name": "Libya", "name1": "ليبيا", "name2": null, "name3": null, "x_coord": 17.24907794, "y_coord": 26.33553382, "adm4_name": null, "adm4_name1": null, "adm4_name2": null, "adm4_name3": null, "adm4_pcode": null, "adm3_name": null, "adm3_name1": null, "adm3_name2": null, "adm3_name3": null, "adm3_pcode": null, "adm2_name": null, "adm2_name1": null, "adm2_name2": null, "adm2_name3": null, "adm2_pcode": null, "adm1_name": null, "adm1_name1": null, "adm1_name2": null, "adm1_name3": null, "adm1_pcode": null, "adm0_name": "Libya", "adm0_name1": null, "adm0_name2": null, "adm0_name3": null, "adm0_pcode": "LY", "valid_on": "2018-05-07", "valid_to": null, "version": "v01", "lang": "en", "lang1": "ar", "lang2": null, "lang3": null }, "geometry": { "type": "Point", "coordinates": [ 17.249077942000042, 26.335533823000105 ] } },
{ "type": "Feature", "properties": { "admin_level": 1, "name": "East", "name1": "الشرق", "name2": null, "name3": null, "x_coord": 22.08422837, "y_coord": 26.20785046, "adm4_name": null, "adm4_name1": null, "adm4_name2": null, "adm4_name3": null, "adm4_pcode": null, "adm3_name": null, "adm3_name1": null, "adm3_name2": null, "adm3_name3": null, "adm3_pcode": null, "adm2_name": null, "adm2_name1": null, "adm2_name2": null, "adm2_name3": null, "adm2_pcode": null, "adm1_name": "East", "adm1_name1": "الشرق", "adm1_name2": null, "adm1_name3": null, "adm1_pcode": "LY01", "adm0_name": "Libya", "adm0_name1": null, "adm0_name2": null, "adm0_name3": null, "adm0_pcode": "LY", "valid_on": "2018-05-07", "valid_to": null, "version": "v01", "lang": "en", "lang1": "ar", "lang2": null, "lang3": null }, "geometry": { "type": "Point", "coordinates": [ 22.084228374000133, 26.207850456000131 ] } },
{ "type": "Feature", "properties": { "admin_level": 1, "name": "West", "name1": "الغرب", "name2": null, "name3": null, "x_coord": 14.15476356, "y_coord": 30.82639313, "adm4_name": null, "adm4_name1": null, "adm4_name2": null, "adm4_name3": null, "adm4_pcode": null, "adm3_name": null, "adm3_name1": null, "adm3_name2": null, "adm3_name3": null, "adm3_pcode": null, "adm2_name": null, "adm2_name1": null, "adm2_name2": null, "adm2_name3": null, "adm2_pcode": null, "adm1_name": "West", "adm1_name1": "الغرب", "adm1_name2": null, "adm1_name3": null, "adm1_pcode": "LY02", "adm0_name": "Libya", "adm0_name1": null, "adm0_name2": null, "adm0_name3": null, "adm0_pcode": "LY", "valid_on": "2018-05-07", "valid_to": null, "version": "v01", "lang": "en", "lang1": "ar", "lang2": null, "lang3": null }, "geometry": { "type": "Point", "coordinates": [ 14.154763564, 30.826393129000166 ] } },
{ "type": "Feature", "properties": { "admin_level": 1, "name": "South", "name1": "الجنوب", "name2": null, "name3": null, "x_coord": 14.37403433, "y_coord": 25.94985745, "adm4_name": null, "adm4_name1": null, "adm4_name2": null, "adm4_name3": null, "adm4_pcode": null, "adm3_name": null, "adm3_name1": null, "adm3_name2": null, "adm3_name3": null, "adm3_pcode": null, "adm2_name": null, "adm2_name1": null, "adm2_name2": null, "adm2_name3": null, "adm2_pcode": null, "adm1_name": "South", "adm1_name1": "الجنوب", "adm1_name2": null, "adm1_name3": null, "adm1_pcode": "LY03", "adm0_name": "Libya", "adm0_name1": null, "adm0_name2": null, "adm0_name3": null, "adm0_pcode": "LY", "valid_on": "2018-05-07", "valid_to": null, "version": "v01", "lang": "en", "lang1": "ar", "lang2": null, "lang3": null }, "geometry": { "type": "Point", "coordinates": [ 14.3740343340001, 25.949857452 ] } },
{ "type": "Feature", "properties": { "admin_level": 2, "name": "Derna", "name1": "درنه", "name2": null, "name3": null, "x_coord": 22.56218335, "y_coord": 31.86901379, "adm4_name": null, "adm4_name1": null, "adm4_name2": null, "adm4_name3": null, "adm4_pcode": null, "adm3_name": null, "adm3_name1": null, "adm3_name2": null, "adm3_name3": null, "adm3_pcode": null, "adm2_name": "Derna", "adm2_name1": "درنه", "adm2_name2": null, "adm2_name3": null, "adm2_pcode": "LY0101", "adm1_name": "East", "adm1_name1": "الشرق", "adm1_name2": null, "adm1_name3": null, "adm1_pcode": "LY01", "adm0_name": "Libya", "adm0_name1": null, "adm0_name2": null, "adm0_name3": null, "adm0_pcode": "LY", "valid_on": "2018-05-07", "valid_to": null, "version": "v01", "lang": "en", "lang1": "ar", "lang2": null, "lang3": null }, "geometry": { "type": "Point", "coordinates": [ 22.562183351000101, 31.869013786000096 ] } },
{ "type": "Feature", "properties": { "admin_level": 2, "name": "Almarj", "name1": "المرج", "name2": null, "name3": null, "x_coord": 21.20972116, "y_coord": 31.90761158, "adm4_name": null, "adm4_name1": null, "adm4_name2": null, "adm4_name3": null, "adm4_pcode": null, "adm3_name": null, "adm3_name1": null, "adm3_name2": null, "adm3_name3": null, "adm3_pcode": null, "adm2_name": "Almarj", "adm2_name1": "المرج", "adm2_name2": null, "adm2_name3": null, "adm2_pcode": "LY0102", "adm1_name": "East", "adm1_name1": "الشرق", "adm1_name2": null, "adm1_name3": null, "adm1_pcode": "LY01", "adm0_name": "Libya", "adm0_name1": null, "adm0_name2": null, "adm0_name3": null, "adm0_pcode": "LY", "valid_on": "2018-05-07", "valid_to": null, "version": "v01", "lang": "en", "lang1": "ar", "lang2": null, "lang3": null }, "geometry": { "type": "Point", "coordinates": [ 21.209721157000047, 31.907611584000165 ] } },
{ "type": "Feature", "properties": { "admin_level": 2, "name": "Benghazi", "name1": "بنغازي", "name2": null, "name3": null, "x_coord": 20.44302792, "y_coord": 31.77765846, "adm4_name": null, "adm4_name1": null, "adm4_name2": null, "adm4_name3": null, "adm4_pcode": null, "adm3_name": null, "adm3_name1": null, "adm3_name2": null, "adm3_name3": null, "adm3_pcode": null, "adm2_name": "Benghazi", "adm2_name1": "بنغازي", "adm2_name2": null, "adm2_name3": null, "adm2_pcode": "LY0103", "adm1_name": "East", "adm1_name1": "الشرق", "adm1_name2": null, "adm1_name3": null, "adm1_pcode": "LY01", "adm0_name": "Libya", "adm0_name1": null, "adm0_name2": null, "adm0_name3": null, "adm0_pcode": "LY", "valid_on": "2018-05-07", "valid_to": null, "version": "v01", "lang": "en", "lang1": "ar", "lang2": null, "lang3": null }, "geometry": { "type": "Point", "coordinates": [ 20.443027916, 31.777658463000137 ] } },
{ "type": "Feature", "properties": { "admin_level": 2, "name": "Tobruk", "name1": "طبرق", "name2": null, "name3": null, "x_coord": 23.8792551, "y_coord": 30.15515721, "adm4_name": null, "adm4_name1": null, "adm4_name2": null, "adm4_name3": null, "adm4_pcode": null, "adm3_name": null, "adm3_name1": null, "adm3_name2": null, "adm3_name3": null, "adm3_pcode": null, "adm2_name": "Tobruk", "adm2_name1": "طبرق", "adm2_name2": null, "adm2_name3": null, "adm2_pcode": "LY0104", "adm1_name": "East", "adm1_name1": "الشرق", "adm1_name2": null, "adm1_name3": null, "adm1_pcode": "LY01", "adm0_name": "Libya", "adm0_name1": null, "adm0_name2": null, "adm0_name3": null, "adm0_pcode": "LY", "valid_on": "2018-05-07", "valid_to": null, "version": "v01", "lang": "en", "lang1": "ar", "lang2": null, "lang3": null }, "geometry": { "type": "Point", "coordinates": [ 23.879255100000137, 30.155157206000069 ] } },
{ "type": "Feature", "properties": { "admin_level": 2, "name": "Ejdabia", "name1": "اجدابيا", "name2": null, "name3": null, "x_coord": 20.78360808, "y_coord": 29.02039623, "adm4_name": null, "adm4_name1": null, "adm4_name2": null, "adm4_name3": null, "adm4_pcode": null, "adm3_name": null, "adm3_name1": null, "adm3_name2": null, "adm3_name3": null, "adm3_pcode": null, "adm2_name": "Ejdabia", "adm2_name1": "اجدابيا", "adm2_name2": null, "adm2_name3": null, "adm2_pcode": "LY0105", "adm1_name": "East", "adm1_name1": "الشرق", "adm1_name2": null, "adm1_name3": null, "adm1_pcode": "LY01", "adm0_name": "Libya", "adm0_name1": null, "adm0_name2": null, "adm0_name3": null, "adm0_pcode": "LY", "valid_on": "2018-05-07", "valid_to": null, "version": "v01", "lang": "en", "lang1": "ar", "lang2": null, "lang3": null }, "geometry": { "type": "Point", "coordinates": [ 20.783608079999965, 29.020396234000145 ] } },
{ "type": "Feature", "properties": { "admin_level": 2, "name": "Al Jabal Al Akhdar", "name1": "الجبل الاخضر", "name2": null, "name3": null, "x_coord": 21.74221111, "y_coord": 32.0065145, "adm4_name": null, "adm4_name1": null, "adm4_name2": null, "adm4_name3": null, "adm4_pcode": null, "adm3_name": null, "adm3_name1": null, "adm3_name2": null, "adm3_name3": null, "adm3_pcode": null, "adm2_name": "Al Jabal Al Akhdar", "adm2_name1": "الجبل الاخضر", "adm2_name2": null, "adm2_name3": null, "adm2_pcode": "LY0106", "adm1_name": "East", "adm1_name1": "الشرق", "adm1_name2": null, "adm1_name3": null, "adm1_pcode": "LY01", "adm0_name": "Libya", "adm0_name1": null, "adm0_name2": null, "adm0_name3": null, "adm0_pcode": "LY", "valid_on": "2018-05-07", "valid_to": null, "version": "v01", "lang": "en", "lang1": "ar", "lang2": null, "lang3": null }, "geometry": { "type": "Point", "coordinates": [ 21.742211109000039, 32.006514499000161 ] } },
{ "type": "Feature", "properties": { "admin_level": 2, "name": "Alkufra", "name1": "الكفرة", "name2": null, "name3": null, "x_coord": 22.09003964, "y_coord": 23.29034901, "adm4_name": null, "adm4_name1": null, "adm4_name2": null, "adm4_name3": null, "adm4_pcode": null, "adm3_name": null, "adm3_name1": null, "adm3_name2": null, "adm3_name3": null, "adm3_pcode": null, "adm2_name": "Alkufra", "adm2_name1": "الكفرة", "adm2_name2": null, "adm2_name3": null, "adm2_pcode": "LY0107", "adm1_name": "East", "adm1_name1": "الشرق", "adm1_name2": null, "adm1_name3": null, "adm1_pcode": "LY01", "adm0_name": "Libya", "adm0_name1": null, "adm0_name2": null, "adm0_name3": null, "adm0_pcode": "LY", "valid_on": "2018-05-07", "valid_to": null, "version": "v01", "lang": "en", "lang1": "ar", "lang2": null, "lang3": null }, "geometry": { "type": "Point", "coordinates": [ 22.090039637000189, 23.290349006000156 ] } },
{ "type": "Feature", "properties": { "admin_level": 2, "name": "Sirt", "name1": "سرت", "name2": null, "name3": null, "x_coord": 16.71445186, "y_coord": 29.94273284, "adm4_name": null, "adm4_name1": null, "adm4_name2": null, "adm4_name3": null, "adm4_pcode": null, "adm3_name": null, "adm3_name1": null, "adm3_name2": null, "adm3_name3": null, "adm3_pcode": null, "adm2_name": "Sirt", "adm2_name1": "سرت", "adm2_name2": null, "adm2_name3": null, "adm2_pcode": "LY0208", "adm1_name": "West", "adm1_name1": "الغرب", "adm1_name2": null, "adm1_name3": null, "adm1_pcode": "LY02", "adm0_name": "Libya", "adm0_name1": null, "adm0_name2": null, "adm0_name3": null, "adm0_pcode": "LY", "valid_on": "2018-05-07", "valid_to": null, "version": "v01", "lang": "en", "lang1": "ar", "lang2": null, "lang3": null }, "geometry": { "type": "Point", "coordinates": [ 16.714451856000039, 29.942732843000101 ] } },
{ "type": "Feature", "properties": { "admin_level": 2, "name": "Nalut", "name1": "نالوت", "name2": null, "name3": null, "x_coord": 11.02353317, "y_coord": 30.59759, "adm4_name": null, "adm4_name1": null, "adm4_name2": null, "adm4_name3": null, "adm4_pcode": null, "adm3_name": null, "adm3_name1": null, "adm3_name2": null, "adm3_name3": null, "adm3_pcode": null, "adm2_name": "Nalut", "adm2_name1": "نالوت", "adm2_name2": null, "adm2_name3": null, "adm2_pcode": "LY0209", "adm1_name": "West", "adm1_name1": "الغرب", "adm1_name2": null, "adm1_name3": null, "adm1_pcode": "LY02", "adm0_name": "Libya", "adm0_name1": null, "adm0_name2": null, "adm0_name3": null, "adm0_pcode": "LY", "valid_on": "2018-05-07", "valid_to": null, "version": "v01", "lang": "en", "lang1": "ar", "lang2": null, "lang3": null }, "geometry": { "type": "Point", "coordinates": [ 11.023533175000125, 30.59759 ] } },
{ "type": "Feature", "properties": { "admin_level": 2, "name": "Almargeb", "name1": "المرقب", "name2": null, "name3": null, "x_coord": 13.85483676, "y_coord": 32.40621159, "adm4_name": null, "adm4_name1": null, "adm4_name2": null, "adm4_name3": null, "adm4_pcode": null, "adm3_name": null, "adm3_name1": null, "adm3_name2": null, "adm3_name3": null, "adm3_pcode": null, "adm2_name": "Almargeb", "adm2_name1": "المرقب", "adm2_name2": null, "adm2_name3": null, "adm2_pcode": "LY0210", "adm1_name": "West", "adm1_name1": "الغرب", "adm1_name2": null, "adm1_name3": null, "adm1_pcode": "LY02", "adm0_name": "Libya", "adm0_name1": null, "adm0_name2": null, "adm0_name3": null, "adm0_pcode": "LY", "valid_on": "2018-05-07", "valid_to": null, "version": "v01", "lang": "en", "lang1": "ar", "lang2": null, "lang3": null }, "geometry": { "type": "Point", "coordinates": [ 13.854836763000094, 32.406211585000108 ] } },
{ "type": "Feature", "properties": { "admin_level": 2, "name": "Tripoli", "name1": "طرابلس", "name2": null, "name3": null, "x_coord": 13.41414723, "y_coord": 32.77325406, "adm4_name": null, "adm4_name1": null, "adm4_name2": null, "adm4_name3": null, "adm4_pcode": null, "adm3_name": null, "adm3_name1": null, "adm3_name2": null, "adm3_name3": null, "adm3_pcode": null, "adm2_name": "Tripoli", "adm2_name1": "طرابلس", "adm2_name2": null, "adm2_name3": null, "adm2_pcode": "LY0211", "adm1_name": "West", "adm1_name1": "الغرب", "adm1_name2": null, "adm1_name3": null, "adm1_pcode": "LY02", "adm0_name": "Libya", "adm0_name1": null, "adm0_name2": null, "adm0_name3": null, "adm0_pcode": "LY", "valid_on": "2018-05-07", "valid_to": null, "version": "v01", "lang": "en", "lang1": "ar", "lang2": null, "lang3": null }, "geometry": { "type": "Point", "coordinates": [ 13.414147226000125, 32.773254058000134 ] } },
{ "type": "Feature", "properties": { "admin_level": 2, "name": "Aljfara", "name1": "الجفارة", "name2": null, "name3": null, "x_coord": 13.06990332, "y_coord": 32.55929174, "adm4_name": null, "adm4_name1": null, "adm4_name2": null, "adm4_name3": null, "adm4_pcode": null, "adm3_name": null, "adm3_name1": null, "adm3_name2": null, "adm3_name3": null, "adm3_pcode": null, "adm2_name": "Aljfara", "adm2_name1": "الجفارة", "adm2_name2": null, "adm2_name3": null, "adm2_pcode": "LY0212", "adm1_name": "West", "adm1_name1": "الغرب", "adm1_name2": null, "adm1_name3": null, "adm1_pcode": "LY02", "adm0_name": "Libya", "adm0_name1": null, "adm0_name2": null, "adm0_name3": null, "adm0_pcode": "LY", "valid_on": "2018-05-07", "valid_to": null, "version": "v01", "lang": "en", "lang1": "ar", "lang2": null, "lang3": null }, "geometry": { "type": "Point", "coordinates": [ 13.069903316000079, 32.559291744000177 ] } },
{ "type": "Feature", "properties": { "admin_level": 2, "name": "Azzawya", "name1": "الزاوية", "name2": null, "name3": null, "x_coord": 12.53210507, "y_coord": 32.49713447, "adm4_name": null, "adm4_name1": null, "adm4_name2": null, "adm4_name3": null, "adm4_pcode": null, "adm3_name": null, "adm3_name1": null, "adm3_name2": null, "adm3_name3": null, "adm3_pcode": null, "adm2_name": "Azzawya", "adm2_name1": "الزاوية", "adm2_name2": null, "adm2_name3": null, "adm2_pcode": "LY0213", "adm1_name": "West", "adm1_name1": "الغرب", "adm1_name2": null, "adm1_name3": null, "adm1_pcode": "LY02", "adm0_name": "Libya", "adm0_name1": null, "adm0_name2": null, "adm0_name3": null, "adm0_pcode": "LY", "valid_on": "2018-05-07", "valid_to": null, "version": "v01", "lang": "en", "lang1": "ar", "lang2": null, "lang3": null }, "geometry": { "type": "Point", "coordinates": [ 12.532105073000082, 32.497134472000141 ] } },
{ "type": "Feature", "properties": { "admin_level": 2, "name": "Misrata", "name1": "مصراته", "name2": null, "name3": null, "x_coord": 14.56251899, "y_coord": 31.46098898, "adm4_name": null, "adm4_name1": null, "adm4_name2": null, "adm4_name3": null, "adm4_pcode": null, "adm3_name": null, "adm3_name1": null, "adm3_name2": null, "adm3_name3": null, "adm3_pcode": null, "adm2_name": "Misrata", "adm2_name1": "مصراته", "adm2_name2": null, "adm2_name3": null, "adm2_pcode": "LY0214", "adm1_name": "West", "adm1_name1": "الغرب", "adm1_name2": null, "adm1_name3": null, "adm1_pcode": "LY02", "adm0_name": "Libya", "adm0_name1": null, "adm0_name2": null, "adm0_name3": null, "adm0_pcode": "LY", "valid_on": "2018-05-07", "valid_to": null, "version": "v01", "lang": "en", "lang1": "ar", "lang2": null, "lang3": null }, "geometry": { "type": "Point", "coordinates": [ 14.562518990000058, 31.460988984000153 ] } },
{ "type": "Feature", "properties": { "admin_level": 2, "name": "Zwara", "name1": "زوارة", "name2": null, "name3": null, "x_coord": 11.99243576, "y_coord": 32.7174224, "adm4_name": null, "adm4_name1": null, "adm4_name2": null, "adm4_name3": null, "adm4_pcode": null, "adm3_name": null, "adm3_name1": null, "adm3_name2": null, "adm3_name3": null, "adm3_pcode": null, "adm2_name": "Zwara", "adm2_name1": "زوارة", "adm2_name2": null, "adm2_name3": null, "adm2_pcode": "LY0215", "adm1_name": "West", "adm1_name1": "الغرب", "adm1_name2": null, "adm1_name3": null, "adm1_pcode": "LY02", "adm0_name": "Libya", "adm0_name1": null, "adm0_name2": null, "adm0_name3": null, "adm0_pcode": "LY", "valid_on": "2018-05-07", "valid_to": null, "version": "v01", "lang": "en", "lang1": "ar", "lang2": null, "lang3": null }, "geometry": { "type": "Point", "coordinates": [ 11.992435764000049, 32.717422404 ] } },
{ "type": "Feature", "properties": { "admin_level": 2, "name": "Al Jabal Al Gharbi", "name1": "الجبل الغربي", "name2": null, "name3": null, "x_coord": 13.02195746, "y_coord": 30.59307692, "adm4_name": null, "adm4_name1": null, "adm4_name2": null, "adm4_name3": null, "adm4_pcode": null, "adm3_name": null, "adm3_name1": null, "adm3_name2": null, "adm3_name3": null, "adm3_pcode": null, "adm2_name": "Al Jabal Al Gharbi", "adm2_name1": "الجبل الغربي", "adm2_name2": null, "adm2_name3": null, "adm2_pcode": "LY0216", "adm1_name": "West", "adm1_name1": "الغرب", "adm1_name2": null, "adm1_name3": null, "adm1_pcode": "LY02", "adm0_name": "Libya", "adm0_name1": null, "adm0_name2": null, "adm0_name3": null, "adm0_pcode": "LY", "valid_on": "2018-05-07", "valid_to": null, "version": "v01", "lang": "en", "lang1": "ar", "lang2": null, "lang3": null }, "geometry": { "type": "Point", "coordinates": [ 13.021957455000063, 30.593076917000076 ] } },
{ "type": "Feature", "properties": { "admin_level": 2, "name": "Aljufra", "name1": "الجفرة", "name2": null, "name3": null, "x_coord": 17.52695733, "y_coord": 27.95586491, "adm4_name": null, "adm4_name1": null, "adm4_name2": null, "adm4_name3": null, "adm4_pcode": null, "adm3_name": null, "adm3_name1": null, "adm3_name2": null, "adm3_name3": null, "adm3_pcode": null, "adm2_name": "Aljufra", "adm2_name1": "الجفرة", "adm2_name2": null, "adm2_name3": null, "adm2_pcode": "LY0317", "adm1_name": "South", "adm1_name1": "الجنوب", "adm1_name2": null, "adm1_name3": null, "adm1_pcode": "LY03", "adm0_name": "Libya", "adm0_name1": null, "adm0_name2": null, "adm0_name3": null, "adm0_pcode": "LY", "valid_on": "2018-05-07", "valid_to": null, "version": "v01", "lang": "en", "lang1": "ar", "lang2": null, "lang3": null }, "geometry": { "type": "Point", "coordinates": [ 17.526957329000027, 27.955864907000091 ] } },
{ "type": "Feature", "properties": { "admin_level": 2, "name": "Wadi Ashshati", "name1": "وادى الشاطئ", "name2": null, "name3": null, "x_coord": 12.76546513, "y_coord": 27.59616566, "adm4_name": null, "adm4_name1": null, "adm4_name2": null, "adm4_name3": null, "adm4_pcode": null, "adm3_name": null, "adm3_name1": null, "adm3_name2": null, "adm3_name3": null, "adm3_pcode": null, "adm2_name": "Wadi Ashshati", "adm2_name1": "وادى الشاطئ", "adm2_name2": null, "adm2_name3": null, "adm2_pcode": "LY0318", "adm1_name": "South", "adm1_name1": "الجنوب", "adm1_name2": null, "adm1_name3": null, "adm1_pcode": "LY03", "adm0_name": "Libya", "adm0_name1": null, "adm0_name2": null, "adm0_name3": null, "adm0_pcode": "LY", "valid_on": "2018-05-07", "valid_to": null, "version": "v01", "lang": "en", "lang1": "ar", "lang2": null, "lang3": null }, "geometry": { "type": "Point", "coordinates": [ 12.76546513, 27.596165658000132 ] } },
{ "type": "Feature", "properties": { "admin_level": 2, "name": "Sebha", "name1": "سبها", "name2": null, "name3": null, "x_coord": 15.02112989, "y_coord": 27.00682925, "adm4_name": null, "adm4_name1": null, "adm4_name2": null, "adm4_name3": null, "adm4_pcode": null, "adm3_name": null, "adm3_name1": null, "adm3_name2": null, "adm3_name3": null, "adm3_pcode": null, "adm2_name": "Sebha", "adm2_name1": "سبها", "adm2_name2": null, "adm2_name3": null, "adm2_pcode": "LY0319", "adm1_name": "South", "adm1_name1": "الجنوب", "adm1_name2": null, "adm1_name3": null, "adm1_pcode": "LY03", "adm0_name": "Libya", "adm0_name1": null, "adm0_name2": null, "adm0_name3": null, "adm0_pcode": "LY", "valid_on": "2018-05-07", "valid_to": null, "version": "v01", "lang": "en", "lang1": "ar", "lang2": null, "lang3": null }, "geometry": { "type": "Point", "coordinates": [ 15.02112988600004, 27.006829252000102 ] } },
{ "type": "Feature", "properties": { "admin_level": 2, "name": "Ubari", "name1": "اوباري", "name2": null, "name3": null, "x_coord": 12.81198233, "y_coord": 26.39552805, "adm4_name": null, "adm4_name1": null, "adm4_name2": null, "adm4_name3": null, "adm4_pcode": null, "adm3_name": null, "adm3_name1": null, "adm3_name2": null, "adm3_name3": null, "adm3_pcode": null, "adm2_name": "Ubari", "adm2_name1": "اوباري", "adm2_name2": null, "adm2_name3": null, "adm2_pcode": "LY0320", "adm1_name": "South", "adm1_name1": "الجنوب", "adm1_name2": null, "adm1_name3": null, "adm1_pcode": "LY03", "adm0_name": "Libya", "adm0_name1": null, "adm0_name2": null, "adm0_name3": null, "adm0_pcode": "LY", "valid_on": "2018-05-07", "valid_to": null, "version": "v01", "lang": "en", "lang1": "ar", "lang2": null, "lang3": null }, "geometry": { "type": "Point", "coordinates": [ 12.811982330000035, 26.395528046000095 ] } },
{ "type": "Feature", "properties": { "admin_level": 2, "name": "Murzuq", "name1": "مرزق", "name2": null, "name3": null, "x_coord": 15.32143401, "y_coord": 24.52850437, "adm4_name": null, "adm4_name1": null, "adm4_name2": null, "adm4_name3": null, "adm4_pcode": null, "adm3_name": null, "adm3_name1": null, "adm3_name2": null, "adm3_name3": null, "adm3_pcode": null, "adm2_name": "Murzuq", "adm2_name1": "مرزق", "adm2_name2": null, "adm2_name3": null, "adm2_pcode": "LY0322", "adm1_name": "South", "adm1_name1": "الجنوب", "adm1_name2": null, "adm1_name3": null, "adm1_pcode": "LY03", "adm0_name": "Libya", "adm0_name1": null, "adm0_name2": null, "adm0_name3": null, "adm0_pcode": "LY", "valid_on": "2018-05-07", "valid_to": null, "version": "v01", "lang": "en", "lang1": "ar", "lang2": null, "lang3": null }, "geometry": { "type": "Point", "coordinates": [ 15.321434006000175, 24.5285043720001 ] } },
{ "type": "Feature", "properties": { "admin_level": 2, "name": "Ghat", "name1": "غات", "name2": null, "name3": null, "x_coord": 10.4160471, "y_coord": 26.03732956, "adm4_name": null, "adm4_name1": null, "adm4_name2": null, "adm4_name3": null, "adm4_pcode": null, "adm3_name": null, "adm3_name1": null, "adm3_name2": null, "adm3_name3": null, "adm3_pcode": null, "adm2_name": "Ghat", "adm2_name1": "غات", "adm2_name2": null, "adm2_name3": null, "adm2_pcode": "LY0321", "adm1_name": "South", "adm1_name1": "الجنوب", "adm1_name2": null, "adm1_name3": null, "adm1_pcode": "LY03", "adm0_name": "Libya", "adm0_name1": null, "adm0_name2": null, "adm0_name3": null, "adm0_pcode": "LY", "valid_on": "2018-05-07", "valid_to": null, "version": "v01", "lang": "en", "lang1": "ar", "lang2": null, "lang3": null }, "geometry": { "type": "Point", "coordinates": [ 10.416047100000185, 26.037329563000185 ] } }
]
}
