{
"type": "FeatureCollection",
"name": "lby_populatedplaces",
"crs": { "type": "name", "properties": { "name": "urn:ogc:def:crs:OGC:1.3:CRS84" } },
"features": [
{ "type": "Feature", "properties": { "featurename_en": "Abu Qurayn", "featurename_ar": "ابو قرين", "pcode": "LY021403", "featurerefname": null, "featurealtname1_en": null, "featurealtname2_en": null, "featurealtname1_ar": null, "featurealtname2_ar": null, "popplaceclassnumber": null, "popplaceclasstitle": null, "adm2_en": "Misrata", "adm2_ar": "مصراته", "adm2_pcode": "LY0214", "adm1_en": "West", "adm1_ar": "الغرب", "adm1_pcode": "LY02", "adm0_en": "Libya", "adm0_ar": "ليبيا", "adm0_pcode": "LY", "date": "2016-11-30", "validon": "2018-10-30", "validto": null, "version": "v01" }, "geometry": { "type": "Point", "coordinates": [ 15.254151, 31.446054 ] } },
{ "type": "Feature", "properties": { "featurename_en": "Abusliem", "featurename_ar": "ابوسليم", "pcode": "LY021105", "featurerefname": null, "featurealtname1_en": null, "featurealtname2_en": null, "featurealtname1_ar": null, "featurealtname2_ar": null, "popplaceclassnumber": null, "popplaceclasstitle": null, "adm2_en": "Tripoli", "adm2_ar": "طرابلس", "adm2_pcode": "LY0211", "adm1_en": "West", "adm1_ar": "الغرب", "adm1_pcode": "LY02", "adm0_en": "Libya", "adm0_ar": "ليبيا", "adm0_pcode": "LY", "date": "2016-11-30", "validon": "2018-10-30", "validto": null, "version": "v01" }, "geometry": { "type": "Point", "coordinates": [ 13.167641619000051, 32.851796959000069 ] } },
{ "type": "Feature", "properties": { "featurename_en": "Ain Zara", "featurename_ar": "عين زارة", "pcode": "LY021103", "featurerefname": null, "featurealtname1_en": null, "featurealtname2_en": null, "featurealtname1_ar": null, "featurealtname2_ar": null, "popplaceclassnumber": null, "popplaceclasstitle": null, "adm2_en": "Tripoli", "adm2_ar": "طرابلس", "adm2_pcode": "LY0211", "adm1_en": "West", "adm1_ar": "الغرب", "adm1_pcode": "LY02", "adm0_en": "Libya", "adm0_ar": "ليبيا", "adm0_pcode": "LY", "date": "2016-11-30", "validon": "2018-10-30", "validto": null, "version": "v01" }, "geometry": { "type": "Point", "coordinates": [ 13.269721946000061, 32.813332990000163 ] } },
{ "type": "Feature", "properties": { "featurename_en": "Al Ajaylat", "featurename_ar": "العجيلات", "pcode": "LY021501", "featurerefname": null, "featurealtname1_en": null, "featurealtname2_en": null, "featurealtname1_ar": null, "featurealtname2_ar": null, "popplaceclassnumber": null, "popplaceclasstitle": null, "adm2_en": "Zwara", "adm2_ar": "زوارة", "adm2_pcode": "LY0215", "adm1_en": "West", "adm1_ar": "الغرب", "adm1_pcode": "LY02", "adm0_en": "Libya", "adm0_ar": "ليبيا", "adm0_pcode": "LY", "date": "2016-11-30", "validon": "2018-10-30", "validto": null, "version": "v01" }, "geometry": { "type": "Point", "coordinates": [ 12.377502360000051, 32.758013762000189 ] } },
{ "type": "Feature", "properties": { "featurename_en": "Al Maya", "featurename_ar": "الماية", "pcode": "LY021208", "featurerefname": null, "featurealtname1_en": null, "featurealtname2_en": null, "featurealtname1_ar": null, "featurealtname2_ar": null, "popplaceclassnumber": null, "popplaceclasstitle": null, "adm2_en": "Aljfara", "adm2_ar": "الجفارة", "adm2_pcode": "LY0212", "adm1_en": "West", "adm1_ar": "الغرب", "adm1_pcode": "LY02", "adm0_en": "Libya", "adm0_ar": "ليبيا", "adm0_pcode": "LY", "date": "2016-11-30", "validon": "2018-10-30", "validto": null, "version": "v01" }, "geometry": { "type": "Point", "coordinates": [ 12.88527821800011, 32.791864186000169 ] } },
{ "type": "Feature", "properties": { "featurename_en": "Al Qalaa", "featurename_ar": "القلعة", "pcode": "LY021604", "featurerefname": null, "featurealtname1_en": null, "featurealtname2_en": null, "featurealtname1_ar": null, "featurealtname2_ar": null, "popplaceclassnumber": null, "popplaceclasstitle": null, "adm2_en": "Al Jabal Al Gharbi", "adm2_ar": "الجبل الغربي", "adm2_pcode": "LY0216", "adm1_en": "West", "adm1_ar": "الغرب", "adm1_pcode": "LY02", "adm0_en": "Libya", "adm0_ar": "ليبيا", "adm0_pcode": "LY", "date": "2016-11-30", "validon": "2018-10-30", "validto": null, "version": "v01" }, "geometry": { "type": "Point", "coordinates": [ 12.561045061000073, 32.0482611380001 ] } },
{ "type": "Feature", "properties": { "featurename_en": "Alabyar", "featurename_ar": "الأبيار", "pcode": "LY010301", "featurerefname": null, "featurealtname1_en": null, "featurealtname2_en": null, "featurealtname1_ar": null, "featurealtname2_ar": null, "popplaceclassnumber": null, "popplaceclasstitle": null, "adm2_en": "Benghazi", "adm2_ar": "بنغازي", "adm2_pcode": "LY0103", "adm1_en": "East", "adm1_ar": "الشرق", "adm1_pcode": "LY01", "adm0_en": "Libya", "adm0_ar": "ليبيا", "adm0_pcode": "LY", "date": "2016-11-30", "validon": "2018-10-30", "validto": null, "version": "v01" }, "geometry": { "type": "Point", "coordinates": [ 20.594508596000139, 32.189645265000138 ] } },
{ "type": "Feature", "properties": { "featurename_en": "Alasabaa", "featurename_ar": "الأصابعة", "pcode": "LY021603", "featurerefname": null, "featurealtname1_en": null, "featurealtname2_en": null, "featurealtname1_ar": null, "featurealtname2_ar": null, "popplaceclassnumber": null, "popplaceclasstitle": null, "adm2_en": "Al Jabal Al Gharbi", "adm2_ar": "الجبل الغربي", "adm2_pcode": "LY0216", "adm1_en": "West", "adm1_ar": "الغرب", "adm1_pcode": "LY02", "adm0_en": "Libya", "adm0_ar": "ليبيا", "adm0_pcode": "LY", "date": "2016-11-30", "validon": "2018-10-30", "validto": null, "version": "v01" }, "geometry": { "type": "Point", "coordinates": [ 12.866666922000093, 32.03333294600003 ] } },
{ "type": "Feature", "properties": { "featurename_en": "Albawanees", "featurename_ar": "البوانيس", "pcode": "LY031902", "featurerefname": null, "featurealtname1_en": null, "featurealtname2_en": null, "featurealtname1_ar": null, "featurealtname2_ar": null, "popplaceclassnumber": null, "popplaceclasstitle": null, "adm2_en": "Sebha", "adm2_ar": "سبها", "adm2_pcode": "LY0319", "adm1_en": "South", "adm1_ar": "الجنوب", "adm1_pcode": "LY03", "adm0_en": "Libya", "adm0_ar": "ليبيا", "adm0_pcode": "LY", "date": "2016-11-30", "validon": "2018-10-30", "validto": null, "version": "v01" }, "geometry": { "type": "Point", "coordinates": [ 14.903607, 27.2670490000001 ] } },
{ "type": "Feature", "properties": { "featurename_en": "Albrayga", "featurename_ar": "البريقة", "pcode": "LY010506", "featurerefname": null, "featurealtname1_en": null, "featurealtname2_en": null, "featurealtname1_ar": null, "featurealtname2_ar": null, "popplaceclassnumber": null, "popplaceclasstitle": null, "adm2_en": "Ejdabia", "adm2_ar": "اجدابيا", "adm2_pcode": "LY0105", "adm1_en": "East", "adm1_ar": "الشرق", "adm1_pcode": "LY01", "adm0_en": "Libya", "adm0_ar": "ليبيا", "adm0_pcode": "LY", "date": "2016-11-30", "validon": "2018-10-30", "validto": null, "version": "v01" }, "geometry": { "type": "Point", "coordinates": [ 19.57386, 30.40624 ] } },
{ "type": "Feature", "properties": { "featurename_en": "Algatroun", "featurename_ar": "القطرون", "pcode": "LY032202", "featurerefname": null, "featurealtname1_en": null, "featurealtname2_en": null, "featurealtname1_ar": null, "featurealtname2_ar": null, "popplaceclassnumber": null, "popplaceclasstitle": null, "adm2_en": "Murzuq", "adm2_ar": "مرزق", "adm2_pcode": "LY0322", "adm1_en": "South", "adm1_ar": "الجنوب", "adm1_pcode": "LY03", "adm0_en": "Libya", "adm0_ar": "ليبيا", "adm0_pcode": "LY", "date": "2016-11-30", "validon": "2018-10-30", "validto": null, "version": "v01" }, "geometry": { "type": "Point", "coordinates": [ 14.531483736000098, 24.888851842000122 ] } },
{ "type": "Feature", "properties": { "featurename_en": "Alghrayfa", "featurename_ar": "الغريفة", "pcode": "LY032002", "featurerefname": null, "featurealtname1_en": null, "featurealtname2_en": null, "featurealtname1_ar": null, "featurealtname2_ar": null, "popplaceclassnumber": null, "popplaceclasstitle": null, "adm2_en": "Ubari", "adm2_ar": "اوباري", "adm2_pcode": "LY0320", "adm1_en": "South", "adm1_ar": "الجنوب", "adm1_pcode": "LY03", "adm0_en": "Libya", "adm0_ar": "ليبيا", "adm0_pcode": "LY", "date": "2016-11-30", "validon": "2018-10-30", "validto": null, "version": "v01" }, "geometry": { "type": "Point", "coordinates": [ 13.009949018999976, 26.525886636000166 ] } },
{ "type": "Feature", "properties": { "featurename_en": "Algurdha Ashshati", "featurename_ar": "القرضة الشاطئ", "pcode": "LY031803", "featurerefname": null, "featurealtname1_en": null, "featurealtname2_en": null, "featurealtname1_ar": null, "featurealtname2_ar": null, "popplaceclassnumber": null, "popplaceclasstitle": null, "adm2_en": "Wadi Ashshati", "adm2_ar": "وادى الشاطئ", "adm2_pcode": "LY0318", "adm1_en": "South", "adm1_ar": "الجنوب", "adm1_pcode": "LY03", "adm0_en": "Libya", "adm0_ar": "ليبيا", "adm0_pcode": "LY", "date": "2016-11-30", "validon": "2018-10-30", "validto": null, "version": "v01" }, "geometry": { "type": "Point", "coordinates": [ 13.969695000000115, 27.483096000000103 ] } },
{ "type": "Feature", "properties": { "featurename_en": "Alharaba", "featurename_ar": "الحرابة", "pcode": "LY020902", "featurerefname": null, "featurealtname1_en": null, "featurealtname2_en": null, "featurealtname1_ar": null, "featurealtname2_ar": null, "popplaceclassnumber": null, "popplaceclasstitle": null, "adm2_en": "Nalut", "adm2_ar": "نالوت", "adm2_pcode": "LY0209", "adm1_en": "West", "adm1_ar": "الغرب", "adm1_pcode": "LY02", "adm0_en": "Libya", "adm0_ar": "ليبيا", "adm0_pcode": "LY", "date": "2016-11-30", "validon": "2018-10-30", "validto": null, "version": "v01" }, "geometry": { "type": "Point", "coordinates": [ 11.543610924000063, 31.773888972000123 ] } },
{ "type": "Feature", "properties": { "featurename_en": "Alhawamid", "featurename_ar": "الحوامد", "pcode": "LY020904", "featurerefname": null, "featurealtname1_en": null, "featurealtname2_en": null, "featurealtname1_ar": null, "featurealtname2_ar": null, "popplaceclassnumber": null, "popplaceclasstitle": null, "adm2_en": "Nalut", "adm2_ar": "نالوت", "adm2_pcode": "LY0209", "adm1_en": "West", "adm1_ar": "الغرب", "adm1_pcode": "LY02", "adm0_en": "Libya", "adm0_ar": "ليبيا", "adm0_pcode": "LY", "date": "2016-11-30", "validon": "2018-10-30", "validto": null, "version": "v01" }, "geometry": { "type": "Point", "coordinates": [ 11.162235482000142, 31.975496183000189 ] } },
{ "type": "Feature", "properties": { "featurename_en": "Aljmail", "featurename_ar": "الجميل", "pcode": "LY021504", "featurerefname": null, "featurealtname1_en": null, "featurealtname2_en": null, "featurealtname1_ar": null, "featurealtname2_ar": null, "popplaceclassnumber": null, "popplaceclasstitle": null, "adm2_en": "Zwara", "adm2_ar": "زوارة", "adm2_pcode": "LY0215", "adm1_en": "West", "adm1_ar": "الغرب", "adm1_pcode": "LY02", "adm0_en": "Libya", "adm0_ar": "ليبيا", "adm0_pcode": "LY", "date": "2016-11-30", "validon": "2018-10-30", "validto": null, "version": "v01" }, "geometry": { "type": "Point", "coordinates": [ 12.059558397000103, 32.853385868000032 ] } },
{ "type": "Feature", "properties": { "featurename_en": "Alqayqab", "featurename_ar": "القيقب", "pcode": "LY010104", "featurerefname": null, "featurealtname1_en": null, "featurealtname2_en": null, "featurealtname1_ar": null, "featurealtname2_ar": null, "popplaceclassnumber": null, "popplaceclasstitle": null, "adm2_en": "Derna", "adm2_ar": "درنه", "adm2_pcode": "LY0101", "adm1_en": "East", "adm1_ar": "الشرق", "adm1_pcode": "LY01", "adm0_en": "Libya", "adm0_ar": "ليبيا", "adm0_pcode": "LY", "date": "2016-11-30", "validon": "2018-10-30", "validto": null, "version": "v01" }, "geometry": { "type": "Point", "coordinates": [ 22.023849934000054, 32.724733968000123 ] } },
{ "type": "Feature", "properties": { "featurename_en": "Alqubba", "featurename_ar": "القبة", "pcode": "LY010103", "featurerefname": null, "featurealtname1_en": null, "featurealtname2_en": null, "featurealtname1_ar": null, "featurealtname2_ar": null, "popplaceclassnumber": null, "popplaceclasstitle": null, "adm2_en": "Derna", "adm2_ar": "درنه", "adm2_pcode": "LY0101", "adm1_en": "East", "adm1_ar": "الشرق", "adm1_pcode": "LY01", "adm0_en": "Libya", "adm0_ar": "ليبيا", "adm0_pcode": "LY", "date": "2016-11-30", "validon": "2018-10-30", "validto": null, "version": "v01" }, "geometry": { "type": "Point", "coordinates": [ 22.241752656000074, 32.763056022000114 ] } },
{ "type": "Feature", "properties": { "featurename_en": "Alsharguiya", "featurename_ar": "الشرقية", "pcode": "LY032201", "featurerefname": null, "featurealtname1_en": null, "featurealtname2_en": null, "featurealtname1_ar": null, "featurealtname2_ar": null, "popplaceclassnumber": null, "popplaceclasstitle": null, "adm2_en": "Murzuq", "adm2_ar": "مرزق", "adm2_pcode": "LY0322", "adm1_en": "South", "adm1_ar": "الجنوب", "adm1_pcode": "LY03", "adm0_en": "Libya", "adm0_ar": "ليبيا", "adm0_pcode": "LY", "date": "2016-11-30", "validon": "2018-10-30", "validto": null, "version": "v01" }, "geometry": { "type": "Point", "coordinates": [ 14.903555, 26.14285 ] } },
{ "type": "Feature", "properties": { "featurename_en": "Arrajban", "featurename_ar": "الرجبان", "pcode": "LY021608", "featurerefname": null, "featurealtname1_en": null, "featurealtname2_en": null, "featurealtname1_ar": null, "featurealtname2_ar": null, "popplaceclassnumber": null, "popplaceclasstitle": null, "adm2_en": "Al Jabal Al Gharbi", "adm2_ar": "الجبل الغربي", "adm2_pcode": "LY0216", "adm1_en": "West", "adm1_ar": "الغرب", "adm1_pcode": "LY02", "adm0_en": "Libya", "adm0_ar": "ليبيا", "adm0_pcode": "LY", "date": "2016-11-30", "validon": "2018-10-30", "validto": null, "version": "v01" }, "geometry": { "type": "Point", "coordinates": [ 12.0913583090001, 31.940334128000075 ] } },
{ "type": "Feature", "properties": { "featurename_en": "Arrayayna", "featurename_ar": "الرياينة", "pcode": "LY021611", "featurerefname": null, "featurealtname1_en": null, "featurealtname2_en": null, "featurealtname1_ar": null, "featurealtname2_ar": null, "popplaceclassnumber": null, "popplaceclasstitle": null, "adm2_en": "Al Jabal Al Gharbi", "adm2_ar": "الجبل الغربي", "adm2_pcode": "LY0216", "adm1_en": "West", "adm1_ar": "الغرب", "adm1_pcode": "LY02", "adm0_en": "Libya", "adm0_ar": "ليبيا", "adm0_pcode": "LY", "date": "2016-11-30", "validon": "2018-10-30", "validto": null, "version": "v01" }, "geometry": { "type": "Point", "coordinates": [ 12.345641651000051, 31.995219510000084 ] } },
{ "type": "Feature", "properties": { "featurename_en": "Arrhaibat", "featurename_ar": "الرحيبات", "pcode": "LY021610", "featurerefname": null, "featurealtname1_en": null, "featurealtname2_en": null, "featurealtname1_ar": null, "featurealtname2_ar": null, "popplaceclassnumber": null, "popplaceclasstitle": null, "adm2_en": "Al Jabal Al Gharbi", "adm2_ar": "الجبل الغربي", "adm2_pcode": "LY0216", "adm1_en": "West", "adm1_ar": "الغرب", "adm1_pcode": "LY02", "adm0_en": "Libya", "adm0_ar": "ليبيا", "adm0_pcode": "LY", "date": "2016-11-30", "validon": "2018-10-30", "validto": null, "version": "v01" }, "geometry": { "type": "Point", "coordinates": [ 11.889615921000086, 31.762544848000118 ] } },
{ "type": "Feature", "properties": { "featurename_en": "Ashshgega", "featurename_ar": "الشقيقة", "pcode": "LY021612", "featurerefname": null, "featurealtname1_en": null, "featurealtname2_en": null, "featurealtname1_ar": null, "featurealtname2_ar": null, "popplaceclassnumber": null, "popplaceclasstitle": null, "adm2_en": "Al Jabal Al Gharbi", "adm2_ar": "الجبل الغربي", "adm2_pcode": "LY0216", "adm1_en": "West", "adm1_ar": "الغرب", "adm1_pcode": "LY02", "adm0_en": "Libya", "adm0_ar": "ليبيا", "adm0_pcode": "LY", "date": "2016-11-30", "validon": "2018-10-30", "validto": null, "version": "v01" }, "geometry": { "type": "Point", "coordinates": [ 12.8169757, 31.650025800000151 ] } },
{ "type": "Feature", "properties": { "featurename_en": "Ashshwayrif", "featurename_ar": "الشويريف", "pcode": "LY021613", "featurerefname": null, "featurealtname1_en": null, "featurealtname2_en": null, "featurealtname1_ar": null, "featurealtname2_ar": null, "popplaceclassnumber": null, "popplaceclasstitle": null, "adm2_en": "Al Jabal Al Gharbi", "adm2_ar": "الجبل الغربي", "adm2_pcode": "LY0216", "adm1_en": "West", "adm1_ar": "الغرب", "adm1_pcode": "LY02", "adm0_en": "Libya", "adm0_ar": "ليبيا", "adm0_pcode": "LY", "date": "2016-11-30", "validon": "2018-10-30", "validto": null, "version": "v01" }, "geometry": { "type": "Point", "coordinates": [ 14.259943700000122, 29.97871490000017 ] } },
{ "type": "Feature", "properties": { "featurename_en": "Assahel", "featurename_ar": "الساحل", "pcode": "LY010203", "featurerefname": null, "featurealtname1_en": null, "featurealtname2_en": null, "featurealtname1_ar": null, "featurealtname2_ar": null, "popplaceclassnumber": null, "popplaceclasstitle": null, "adm2_en": "Almarj", "adm2_ar": "المرج", "adm2_pcode": "LY0102", "adm1_en": "East", "adm1_ar": "الشرق", "adm1_pcode": "LY01", "adm0_en": "Libya", "adm0_ar": "ليبيا", "adm0_pcode": "LY", "date": "2016-11-30", "validon": "2018-10-30", "validto": null, "version": "v01" }, "geometry": { "type": "Point", "coordinates": [ 21.252778, 32.561944 ] } },
{ "type": "Feature", "properties": { "featurename_en": "Aujala", "featurename_ar": "أوجلة", "pcode": "LY010503", "featurerefname": null, "featurealtname1_en": null, "featurealtname2_en": null, "featurealtname1_ar": null, "featurealtname2_ar": null, "popplaceclassnumber": null, "popplaceclasstitle": null, "adm2_en": "Ejdabia", "adm2_ar": "اجدابيا", "adm2_pcode": "LY0105", "adm1_en": "East", "adm1_ar": "الشرق", "adm1_pcode": "LY01", "adm0_en": "Libya", "adm0_ar": "ليبيا", "adm0_pcode": "LY", "date": "2016-11-30", "validon": "2018-10-30", "validto": null, "version": "v01" }, "geometry": { "type": "Point", "coordinates": [ 21.297499953999989, 29.14027796 ] } },
{ "type": "Feature", "properties": { "featurename_en": "Azzahra", "featurename_ar": "الزهراء", "pcode": "LY021209", "featurerefname": null, "featurealtname1_en": null, "featurealtname2_en": null, "featurealtname1_ar": null, "featurealtname2_ar": null, "popplaceclassnumber": null, "popplaceclasstitle": null, "adm2_en": "Aljfara", "adm2_ar": "الجفارة", "adm2_pcode": "LY0212", "adm1_en": "West", "adm1_ar": "الغرب", "adm1_pcode": "LY02", "adm0_en": "Libya", "adm0_ar": "ليبيا", "adm0_pcode": "LY", "date": "2016-11-30", "validon": "2018-10-30", "validto": null, "version": "v01" }, "geometry": { "type": "Point", "coordinates": [ 12.872463931000027, 32.677949348000027 ] } },
{ "type": "Feature", "properties": { "featurename_en": "Azzintan", "featurename_ar": "الزنتان", "pcode": "LY021602", "featurerefname": null, "featurealtname1_en": null, "featurealtname2_en": null, "featurealtname1_ar": null, "featurealtname2_ar": null, "popplaceclassnumber": null, "popplaceclasstitle": null, "adm2_en": "Al Jabal Al Gharbi", "adm2_ar": "الجبل الغربي", "adm2_pcode": "LY0216", "adm1_en": "West", "adm1_ar": "الغرب", "adm1_pcode": "LY02", "adm0_en": "Libya", "adm0_ar": "ليبيا", "adm0_pcode": "LY", "date": "2016-11-30", "validon": "2018-10-30", "validto": null, "version": "v01" }, "geometry": { "type": "Point", "coordinates": [ 12.248361992000071, 31.930361278000078 ] } },
{ "type": "Feature", "properties": { "featurename_en": "Bani Waleed", "featurename_ar": "بني وليد", "pcode": "LY021404", "featurerefname": null, "featurealtname1_en": null, "featurealtname2_en": null, "featurealtname1_ar": null, "featurealtname2_ar": null, "popplaceclassnumber": null, "popplaceclasstitle": null, "adm2_en": "Misrata", "adm2_ar": "مصراته", "adm2_pcode": "LY0214", "adm1_en": "West", "adm1_ar": "الغرب", "adm1_pcode": "LY02", "adm0_en": "Libya", "adm0_ar": "ليبيا", "adm0_pcode": "LY", "date": "2016-11-30", "validon": "2018-10-30", "validto": null, "version": "v01" }, "geometry": { "type": "Point", "coordinates": [ 13.995050992000188, 31.756969462000143 ] } },
{ "type": "Feature", "properties": { "featurename_en": "Baten Aljabal", "featurename_ar": "باطن الجبل", "pcode": "LY020908", "featurerefname": null, "featurealtname1_en": null, "featurealtname2_en": null, "featurealtname1_ar": null, "featurealtname2_ar": null, "popplaceclassnumber": null, "popplaceclasstitle": null, "adm2_en": "Nalut", "adm2_ar": "نالوت", "adm2_pcode": "LY0209", "adm1_en": "West", "adm1_ar": "الغرب", "adm1_pcode": "LY02", "adm0_en": "Libya", "adm0_ar": "ليبيا", "adm0_pcode": "LY", "date": "2016-11-30", "validon": "2018-10-30", "validto": null, "version": "v01" }, "geometry": { "type": "Point", "coordinates": [ 11.536746000000164, 32.017397 ] } },
{ "type": "Feature", "properties": { "featurename_en": "Bint Bayya", "featurename_ar": "بنت بية", "pcode": "LY032001", "featurerefname": null, "featurealtname1_en": null, "featurealtname2_en": null, "featurealtname1_ar": null, "featurealtname2_ar": null, "popplaceclassnumber": null, "popplaceclasstitle": null, "adm2_en": "Ubari", "adm2_ar": "اوباري", "adm2_pcode": "LY0320", "adm1_en": "South", "adm1_ar": "الجنوب", "adm1_pcode": "LY03", "adm0_en": "Libya", "adm0_ar": "ليبيا", "adm0_pcode": "LY", "date": "2016-11-30", "validon": "2018-10-30", "validto": null, "version": "v01" }, "geometry": { "type": "Point", "coordinates": [ 13.653227294000033, 26.643808942000078 ] } },
{ "type": "Feature", "properties": { "featurename_en": "Bir Alashhab", "featurename_ar": "بير الأشهب", "pcode": "LY010402", "featurerefname": null, "featurealtname1_en": null, "featurealtname2_en": null, "featurealtname1_ar": null, "featurealtname2_ar": null, "popplaceclassnumber": null, "popplaceclasstitle": null, "adm2_en": "Tobruk", "adm2_ar": "طبرق", "adm2_pcode": "LY0104", "adm1_en": "East", "adm1_ar": "الشرق", "adm1_pcode": "LY01", "adm0_en": "Libya", "adm0_ar": "ليبيا", "adm0_pcode": "LY", "date": "2016-11-30", "validon": "2018-10-30", "validto": null, "version": "v01" }, "geometry": { "type": "Point", "coordinates": [ 24.664016341000092, 31.886672290000092 ] } },
{ "type": "Feature", "properties": { "featurename_en": "Daraj", "featurename_ar": "درج", "pcode": "LY020907", "featurerefname": null, "featurealtname1_en": null, "featurealtname2_en": null, "featurealtname1_ar": null, "featurealtname2_ar": null, "popplaceclassnumber": null, "popplaceclasstitle": null, "adm2_en": "Nalut", "adm2_ar": "نالوت", "adm2_pcode": "LY0209", "adm1_en": "West", "adm1_ar": "الغرب", "adm1_pcode": "LY02", "adm0_en": "Libya", "adm0_ar": "ليبيا", "adm0_pcode": "LY", "date": "2016-11-30", "validon": "2018-10-30", "validto": null, "version": "v01" }, "geometry": { "type": "Point", "coordinates": [ 10.458735588000138, 30.16394927500005 ] } },
{ "type": "Feature", "properties": { "featurename_en": "Edri", "featurename_ar": "إدري الشاطئ", "pcode": "LY031802", "featurerefname": null, "featurealtname1_en": null, "featurealtname2_en": null, "featurealtname1_ar": null, "featurealtname2_ar": null, "popplaceclassnumber": null, "popplaceclasstitle": null, "adm2_en": "Wadi Ashshati", "adm2_ar": "وادى الشاطئ", "adm2_pcode": "LY0318", "adm1_en": "South", "adm1_ar": "الجنوب", "adm1_pcode": "LY03", "adm0_en": "Libya", "adm0_ar": "ليبيا", "adm0_pcode": "LY", "date": "2016-11-30", "validon": "2018-10-30", "validto": null, "version": "v01" }, "geometry": { "type": "Point", "coordinates": [ 13.050792989000115, 27.443658687000095 ] } },
{ "type": "Feature", "properties": { "featurename_en": "Ejkherra", "featurename_ar": "إجخرة", "pcode": "LY010501", "featurerefname": null, "featurealtname1_en": null, "featurealtname2_en": null, "featurealtname1_ar": null, "featurealtname2_ar": null, "popplaceclassnumber": null, "popplaceclasstitle": null, "adm2_en": "Ejdabia", "adm2_ar": "اجدابيا", "adm2_pcode": "LY0105", "adm1_en": "East", "adm1_ar": "الشرق", "adm1_pcode": "LY01", "adm0_en": "Libya", "adm0_ar": "ليبيا", "adm0_pcode": "LY", "date": "2016-11-30", "validon": "2018-10-30", "validto": null, "version": "v01" }, "geometry": { "type": "Point", "coordinates": [ 21.649898170000085, 29.296253228000069 ] } },
{ "type": "Feature", "properties": { "featurename_en": "Emsaed", "featurename_ar": "امساعد", "pcode": "LY010401", "featurerefname": null, "featurealtname1_en": null, "featurealtname2_en": null, "featurealtname1_ar": null, "featurealtname2_ar": null, "popplaceclassnumber": null, "popplaceclasstitle": null, "adm2_en": "Tobruk", "adm2_ar": "طبرق", "adm2_pcode": "LY0104", "adm1_en": "East", "adm1_ar": "الشرق", "adm1_pcode": "LY01", "adm0_en": "Libya", "adm0_ar": "ليبيا", "adm0_pcode": "LY", "date": "2016-11-30", "validon": "2018-10-30", "validto": null, "version": "v01" }, "geometry": { "type": "Point", "coordinates": [ 25.048502379000013, 31.613531743000124 ] } },
{ "type": "Feature", "properties": { "featurename_en": "Espeaa", "featurename_ar": "السبيعة", "pcode": "LY021204", "featurerefname": null, "featurealtname1_en": null, "featurealtname2_en": null, "featurealtname1_ar": null, "featurealtname2_ar": null, "popplaceclassnumber": null, "popplaceclasstitle": null, "adm2_en": "Aljfara", "adm2_ar": "الجفارة", "adm2_pcode": "LY0212", "adm1_en": "West", "adm1_ar": "الغرب", "adm1_pcode": "LY02", "adm0_en": "Libya", "adm0_ar": "ليبيا", "adm0_pcode": "LY", "date": "2016-11-30", "validon": "2018-10-30", "validto": null, "version": "v01" }, "geometry": { "type": "Point", "coordinates": [ 13.17680174000003, 32.536986872999989 ] } },
{ "type": "Feature", "properties": { "featurename_en": "Garabolli", "featurename_ar": "القره بولي", "pcode": "LY021004", "featurerefname": null, "featurealtname1_en": null, "featurealtname2_en": null, "featurealtname1_ar": null, "featurealtname2_ar": null, "popplaceclassnumber": null, "popplaceclasstitle": null, "adm2_en": "Almargeb", "adm2_ar": "المرقب", "adm2_pcode": "LY0210", "adm1_en": "West", "adm1_ar": "الغرب", "adm1_pcode": "LY02", "adm0_en": "Libya", "adm0_ar": "ليبيا", "adm0_pcode": "LY", "date": "2016-11-30", "validon": "2018-10-30", "validto": null, "version": "v01" }, "geometry": { "type": "Point", "coordinates": [ 13.712795658000061, 32.742727426000158 ] } },
{ "type": "Feature", "properties": { "featurename_en": "Gemienis", "featurename_ar": "قمينس", "pcode": "LY010305", "featurerefname": null, "featurealtname1_en": null, "featurealtname2_en": null, "featurealtname1_ar": null, "featurealtname2_ar": null, "popplaceclassnumber": null, "popplaceclasstitle": null, "adm2_en": "Benghazi", "adm2_ar": "بنغازي", "adm2_pcode": "LY0103", "adm1_en": "East", "adm1_ar": "الشرق", "adm1_pcode": "LY01", "adm0_en": "Libya", "adm0_ar": "ليبيا", "adm0_pcode": "LY", "date": "2016-11-30", "validon": "2018-10-30", "validto": null, "version": "v01" }, "geometry": { "type": "Point", "coordinates": [ 20.01579843900015, 31.65674137700006 ] } },
{ "type": "Feature", "properties": { "featurename_en": "Gharb Azzawya", "featurename_ar": "غرب الزاوية", "pcode": "LY021303", "featurerefname": null, "featurealtname1_en": null, "featurealtname2_en": null, "featurealtname1_ar": null, "featurealtname2_ar": null, "popplaceclassnumber": null, "popplaceclasstitle": null, "adm2_en": "Azzawya", "adm2_ar": "الزاوية", "adm2_pcode": "LY0213", "adm1_en": "West", "adm1_ar": "الغرب", "adm1_pcode": "LY02", "adm0_en": "Libya", "adm0_ar": "ليبيا", "adm0_pcode": "LY", "date": "2016-11-30", "validon": "2018-10-30", "validto": null, "version": "v01" }, "geometry": { "type": "Point", "coordinates": [ 12.626164100000096, 32.767159900000024 ] } },
{ "type": "Feature", "properties": { "featurename_en": "Hai Alandalus", "featurename_ar": "حي الأندلس", "pcode": "LY021106", "featurerefname": null, "featurealtname1_en": null, "featurealtname2_en": null, "featurealtname1_ar": null, "featurealtname2_ar": null, "popplaceclassnumber": null, "popplaceclasstitle": null, "adm2_en": "Tripoli", "adm2_ar": "طرابلس", "adm2_pcode": "LY0211", "adm1_en": "West", "adm1_ar": "الغرب", "adm1_pcode": "LY02", "adm0_en": "Libya", "adm0_ar": "ليبيا", "adm0_pcode": "LY", "date": "2016-11-30", "validon": "2018-10-30", "validto": null, "version": "v01" }, "geometry": { "type": "Point", "coordinates": [ 13.128251123000098, 32.875104467000142 ] } },
{ "type": "Feature", "properties": { "featurename_en": "Hrawa", "featurename_ar": "هراوة", "pcode": "LY020802", "featurerefname": null, "featurealtname1_en": null, "featurealtname2_en": null, "featurealtname1_ar": null, "featurealtname2_ar": null, "popplaceclassnumber": null, "popplaceclasstitle": null, "adm2_en": "Sirt", "adm2_ar": "سرت", "adm2_pcode": "LY0208", "adm1_en": "West", "adm1_ar": "الغرب", "adm1_pcode": "LY02", "adm0_en": "Libya", "adm0_ar": "ليبيا", "adm0_pcode": "LY", "date": "2016-11-30", "validon": "2018-10-30", "validto": null, "version": "v01" }, "geometry": { "type": "Point", "coordinates": [ 17.280138062999981, 31.054249888000186 ] } },
{ "type": "Feature", "properties": { "featurename_en": "Jadu", "featurename_ar": "جادو", "pcode": "LY021609", "featurerefname": null, "featurealtname1_en": null, "featurealtname2_en": null, "featurealtname1_ar": null, "featurealtname2_ar": null, "popplaceclassnumber": null, "popplaceclasstitle": null, "adm2_en": "Al Jabal Al Gharbi", "adm2_ar": "الجبل الغربي", "adm2_pcode": "LY0216", "adm1_en": "West", "adm1_ar": "الغرب", "adm1_pcode": "LY02", "adm0_en": "Libya", "adm0_ar": "ليبيا", "adm0_pcode": "LY", "date": "2016-11-30", "validon": "2018-10-30", "validto": null, "version": "v01" }, "geometry": { "type": "Point", "coordinates": [ 12.026090853000142, 31.953043852000121 ] } },
{ "type": "Feature", "properties": { "featurename_en": "Jalu", "featurename_ar": "جالو", "pcode": "LY010502", "featurerefname": null, "featurealtname1_en": null, "featurealtname2_en": null, "featurealtname1_ar": null, "featurealtname2_ar": null, "popplaceclassnumber": null, "popplaceclasstitle": null, "adm2_en": "Ejdabia", "adm2_ar": "اجدابيا", "adm2_pcode": "LY0105", "adm1_en": "East", "adm1_ar": "الشرق", "adm1_pcode": "LY01", "adm0_en": "Libya", "adm0_ar": "ليبيا", "adm0_pcode": "LY", "date": "2016-11-30", "validon": "2018-10-30", "validto": null, "version": "v01" }, "geometry": { "type": "Point", "coordinates": [ 21.548220827000023, 29.033114859000079 ] } },
{ "type": "Feature", "properties": { "featurename_en": "Janoub Azzawya", "featurename_ar": "الزاوية جنوب", "pcode": "LY021304", "featurerefname": null, "featurealtname1_en": null, "featurealtname2_en": null, "featurealtname1_ar": null, "featurealtname2_ar": null, "popplaceclassnumber": null, "popplaceclasstitle": null, "adm2_en": "Azzawya", "adm2_ar": "الزاوية", "adm2_pcode": "LY0213", "adm1_en": "West", "adm1_ar": "الغرب", "adm1_pcode": "LY02", "adm0_en": "Libya", "adm0_ar": "ليبيا", "adm0_pcode": "LY", "date": "2016-11-30", "validon": "2018-10-30", "validto": null, "version": "v01" }, "geometry": { "type": "Point", "coordinates": [ 12.569722, 32.312500000000114 ] } },
{ "type": "Feature", "properties": { "featurename_en": "Janzour", "featurename_ar": "جنزور", "pcode": "LY021206", "featurerefname": null, "featurealtname1_en": null, "featurealtname2_en": null, "featurealtname1_ar": null, "featurealtname2_ar": null, "popplaceclassnumber": null, "popplaceclasstitle": null, "adm2_en": "Aljfara", "adm2_ar": "الجفارة", "adm2_pcode": "LY0212", "adm1_en": "West", "adm1_ar": "الغرب", "adm1_pcode": "LY02", "adm0_en": "Libya", "adm0_ar": "ليبيا", "adm0_pcode": "LY", "date": "2016-11-30", "validon": "2018-10-30", "validto": null, "version": "v01" }, "geometry": { "type": "Point", "coordinates": [ 13.026066771000103, 32.825592726000082 ] } },
{ "type": "Feature", "properties": { "featurename_en": "Jardas Alabeed", "featurename_ar": "جردس العبيد", "pcode": "LY010201", "featurerefname": null, "featurealtname1_en": null, "featurealtname2_en": null, "featurealtname1_ar": null, "featurealtname2_ar": null, "popplaceclassnumber": null, "popplaceclasstitle": null, "adm2_en": "Almarj", "adm2_ar": "المرج", "adm2_pcode": "LY0102", "adm1_en": "East", "adm1_ar": "الشرق", "adm1_pcode": "LY01", "adm0_en": "Libya", "adm0_ar": "ليبيا", "adm0_pcode": "LY", "date": "2016-11-30", "validon": "2018-10-30", "validto": null, "version": "v01" }, "geometry": { "type": "Point", "coordinates": [ 20.986927477000165, 32.302738554000143 ] } },
{ "type": "Feature", "properties": { "featurename_en": "Kabaw", "featurename_ar": "كاباو", "pcode": "LY020903", "featurerefname": null, "featurealtname1_en": null, "featurealtname2_en": null, "featurealtname1_ar": null, "featurealtname2_ar": null, "popplaceclassnumber": null, "popplaceclasstitle": null, "adm2_en": "Nalut", "adm2_ar": "نالوت", "adm2_pcode": "LY0209", "adm1_en": "West", "adm1_ar": "الغرب", "adm1_pcode": "LY02", "adm0_en": "Libya", "adm0_ar": "ليبيا", "adm0_pcode": "LY", "date": "2016-11-30", "validon": "2018-10-30", "validto": null, "version": "v01" }, "geometry": { "type": "Point", "coordinates": [ 11.340647725000053, 31.846336091000182 ] } },
{ "type": "Feature", "properties": { "featurename_en": "Khaleej Assidra", "featurename_ar": "خليج السدرة", "pcode": "LY020801", "featurerefname": null, "featurealtname1_en": null, "featurealtname2_en": null, "featurealtname1_ar": null, "featurealtname2_ar": null, "popplaceclassnumber": null, "popplaceclasstitle": null, "adm2_en": "Sirt", "adm2_ar": "سرت", "adm2_pcode": "LY0208", "adm1_en": "West", "adm1_ar": "الغرب", "adm1_pcode": "LY02", "adm0_en": "Libya", "adm0_ar": "ليبيا", "adm0_pcode": "LY", "date": "2016-11-30", "validon": "2018-10-30", "validto": null, "version": "v01" }, "geometry": { "type": "Point", "coordinates": [ 18.349292971000068, 30.631993553000029 ] } },
{ "type": "Feature", "properties": { "featurename_en": "Kikkla", "featurename_ar": "ككلة", "pcode": "LY021607", "featurerefname": null, "featurealtname1_en": null, "featurealtname2_en": null, "featurealtname1_ar": null, "featurealtname2_ar": null, "popplaceclassnumber": null, "popplaceclasstitle": null, "adm2_en": "Al Jabal Al Gharbi", "adm2_ar": "الجبل الغربي", "adm2_pcode": "LY0216", "adm1_en": "West", "adm1_ar": "الغرب", "adm1_pcode": "LY02", "adm0_en": "Libya", "adm0_ar": "ليبيا", "adm0_pcode": "LY", "date": "2016-11-30", "validon": "2018-10-30", "validto": null, "version": "v01" }, "geometry": { "type": "Point", "coordinates": [ 12.694156342000099, 32.069344224000133 ] } },
{ "type": "Feature", "properties": { "featurename_en": "Labriq", "featurename_ar": "الأبرق", "pcode": "LY010105", "featurerefname": null, "featurealtname1_en": null, "featurealtname2_en": null, "featurealtname1_ar": null, "featurealtname2_ar": null, "popplaceclassnumber": null, "popplaceclasstitle": null, "adm2_en": "Derna", "adm2_ar": "درنه", "adm2_pcode": "LY0101", "adm1_en": "East", "adm1_ar": "الشرق", "adm1_pcode": "LY01", "adm0_en": "Libya", "adm0_ar": "ليبيا", "adm0_pcode": "LY", "date": "2016-11-30", "validon": "2018-10-30", "validto": null, "version": "v01" }, "geometry": { "type": "Point", "coordinates": [ 21.997781993000103, 32.78652796900019 ] } },
{ "type": "Feature", "properties": { "featurename_en": "Marada", "featurename_ar": "مرادة", "pcode": "LY010505", "featurerefname": null, "featurealtname1_en": null, "featurealtname2_en": null, "featurealtname1_ar": null, "featurealtname2_ar": null, "popplaceclassnumber": null, "popplaceclasstitle": null, "adm2_en": "Ejdabia", "adm2_ar": "اجدابيا", "adm2_pcode": "LY0105", "adm1_en": "East", "adm1_ar": "الشرق", "adm1_pcode": "LY01", "adm0_en": "Libya", "adm0_ar": "ليبيا", "adm0_pcode": "LY", "date": "2016-11-30", "validon": "2018-10-30", "validto": null, "version": "v01" }, "geometry": { "type": "Point", "coordinates": [ 19.204394440000158, 29.2213762720001 ] } },
{ "type": "Feature", "properties": { "featurename_en": "Msallata", "featurename_ar": "مسلاتة", "pcode": "LY021002", "featurerefname": null, "featurealtname1_en": null, "featurealtname2_en": null, "featurealtname1_ar": null, "featurealtname2_ar": null, "popplaceclassnumber": null, "popplaceclasstitle": null, "adm2_en": "Almargeb", "adm2_ar": "المرقب", "adm2_pcode": "LY0210", "adm1_en": "West", "adm1_ar": "الغرب", "adm1_pcode": "LY02", "adm0_en": "Libya", "adm0_ar": "ليبيا", "adm0_pcode": "LY", "date": "2016-11-30", "validon": "2018-10-30", "validto": null, "version": "v01" }, "geometry": { "type": "Point", "coordinates": [ 14.041737066000167, 32.579921930000182 ] } },
{ "type": "Feature", "properties": { "featurename_en": "Nalut", "featurename_ar": "نالوت", "pcode": "LY020905", "featurerefname": null, "featurealtname1_en": null, "featurealtname2_en": null, "featurealtname1_ar": null, "featurealtname2_ar": null, "popplaceclassnumber": null, "popplaceclasstitle": null, "adm2_en": "Nalut", "adm2_ar": "نالوت", "adm2_pcode": "LY0209", "adm1_en": "West", "adm1_ar": "الغرب", "adm1_pcode": "LY02", "adm0_en": "Libya", "adm0_ar": "ليبيا", "adm0_pcode": "LY", "date": "2016-11-30", "validon": "2018-10-30", "validto": null, "version": "v01" }, "geometry": { "type": "Point", "coordinates": [ 10.982982596, 31.864226645000031 ] } },
{ "type": "Feature", "properties": { "featurename_en": "Nesma", "featurename_ar": "نسمة", "pcode": "LY021601", "featurerefname": null, "featurealtname1_en": null, "featurealtname2_en": null, "featurealtname1_ar": null, "featurealtname2_ar": null, "popplaceclassnumber": null, "popplaceclasstitle": null, "adm2_en": "Al Jabal Al Gharbi", "adm2_ar": "الجبل الغربي", "adm2_pcode": "LY0216", "adm1_en": "West", "adm1_ar": "الغرب", "adm1_pcode": "LY02", "adm0_en": "Libya", "adm0_ar": "ليبيا", "adm0_pcode": "LY", "date": "2016-11-30", "validon": "2018-10-30", "validto": null, "version": "v01" }, "geometry": { "type": "Point", "coordinates": [ 13.328442031000179, 31.391933267000184 ] } },
{ "type": "Feature", "properties": { "featurename_en": "Qasr Akhyar", "featurename_ar": "قصر الأخيار", "pcode": "LY021003", "featurerefname": null, "featurealtname1_en": null, "featurealtname2_en": null, "featurealtname1_ar": null, "featurealtname2_ar": null, "popplaceclassnumber": null, "popplaceclasstitle": null, "adm2_en": "Almargeb", "adm2_ar": "المرقب", "adm2_pcode": "LY0210", "adm1_en": "West", "adm1_ar": "الغرب", "adm1_pcode": "LY02", "adm0_en": "Libya", "adm0_ar": "ليبيا", "adm0_pcode": "LY", "date": "2016-11-30", "validon": "2018-10-30", "validto": null, "version": "v01" }, "geometry": { "type": "Point", "coordinates": [ 13.846110946000124, 32.696666940000057 ] } },
{ "type": "Feature", "properties": { "featurename_en": "Qasr Bin Ghasheer", "featurename_ar": "قصر بن غشير", "pcode": "LY021203", "featurerefname": null, "featurealtname1_en": null, "featurealtname2_en": null, "featurealtname1_ar": null, "featurealtname2_ar": null, "popplaceclassnumber": null, "popplaceclasstitle": null, "adm2_en": "Aljfara", "adm2_ar": "الجفارة", "adm2_pcode": "LY0212", "adm1_en": "West", "adm1_ar": "الغرب", "adm1_pcode": "LY02", "adm0_en": "Libya", "adm0_ar": "ليبيا", "adm0_pcode": "LY", "date": "2016-11-30", "validon": "2018-10-30", "validto": null, "version": "v01" }, "geometry": { "type": "Point", "coordinates": [ 13.182801318000145, 32.681751989000134 ] } },
{ "type": "Feature", "properties": { "featurename_en": "Rigdaleen", "featurename_ar": "رقدالين", "pcode": "LY021505", "featurerefname": null, "featurealtname1_en": null, "featurealtname2_en": null, "featurealtname1_ar": null, "featurealtname2_ar": null, "popplaceclassnumber": null, "popplaceclasstitle": null, "adm2_en": "Zwara", "adm2_ar": "زوارة", "adm2_pcode": "LY0215", "adm1_en": "West", "adm1_ar": "الغرب", "adm1_pcode": "LY02", "adm0_en": "Libya", "adm0_ar": "ليبيا", "adm0_pcode": "LY", "date": "2016-11-30", "validon": "2018-10-30", "validto": null, "version": "v01" }, "geometry": { "type": "Point", "coordinates": [ 11.986724072000129, 32.887102663000064 ] } },
{ "type": "Feature", "properties": { "featurename_en": "Sabratha", "featurename_ar": "صبراتة", "pcode": "LY021502", "featurerefname": null, "featurealtname1_en": null, "featurealtname2_en": null, "featurealtname1_ar": null, "featurealtname2_ar": null, "popplaceclassnumber": null, "popplaceclasstitle": null, "adm2_en": "Zwara", "adm2_ar": "زوارة", "adm2_pcode": "LY0215", "adm1_en": "West", "adm1_ar": "الغرب", "adm1_pcode": "LY02", "adm0_en": "Libya", "adm0_ar": "ليبيا", "adm0_pcode": "LY", "date": "2016-11-30", "validon": "2018-10-30", "validto": null, "version": "v01" }, "geometry": { "type": "Point", "coordinates": [ 12.485805676000098, 32.792167760999973 ] } },
{ "type": "Feature", "properties": { "featurename_en": "Shahhat", "featurename_ar": "شحات", "pcode": "LY010601", "featurerefname": null, "featurealtname1_en": null, "featurealtname2_en": null, "featurealtname1_ar": null, "featurealtname2_ar": null, "popplaceclassnumber": null, "popplaceclasstitle": null, "adm2_en": "Al Jabal Al Akhdar", "adm2_ar": "الجبل الاخضر", "adm2_pcode": "LY0106", "adm1_en": "East", "adm1_ar": "الشرق", "adm1_pcode": "LY01", "adm0_en": "Libya", "adm0_ar": "ليبيا", "adm0_pcode": "LY", "date": "2016-11-30", "validon": "2018-10-30", "validto": null, "version": "v01" }, "geometry": { "type": "Point", "coordinates": [ 21.869683581, 32.808214980000173 ] } },
{ "type": "Feature", "properties": { "featurename_en": "Sidi Assayeh", "featurename_ar": "سيدي السايح", "pcode": "LY021201", "featurerefname": null, "featurealtname1_en": null, "featurealtname2_en": null, "featurealtname1_ar": null, "featurealtname2_ar": null, "popplaceclassnumber": null, "popplaceclasstitle": null, "adm2_en": "Aljfara", "adm2_ar": "الجفارة", "adm2_pcode": "LY0212", "adm1_en": "West", "adm1_ar": "الغرب", "adm1_pcode": "LY02", "adm0_en": "Libya", "adm0_ar": "ليبيا", "adm0_pcode": "LY", "date": "2016-11-30", "validon": "2018-10-30", "validto": null, "version": "v01" }, "geometry": { "type": "Point", "coordinates": [ 13.253610931000082, 32.561110928000062 ] } },
{ "type": "Feature", "properties": { "featurename_en": "Suloug", "featurename_ar": "سلوق", "pcode": "LY010303", "featurerefname": null, "featurealtname1_en": null, "featurealtname2_en": null, "featurealtname1_ar": null, "featurealtname2_ar": null, "popplaceclassnumber": null, "popplaceclasstitle": null, "adm2_en": "Benghazi", "adm2_ar": "بنغازي", "adm2_pcode": "LY0103", "adm1_en": "East", "adm1_ar": "الشرق", "adm1_pcode": "LY01", "adm0_en": "Libya", "adm0_ar": "ليبيا", "adm0_pcode": "LY", "date": "2016-11-30", "validon": "2018-10-30", "validto": null, "version": "v01" }, "geometry": { "type": "Point", "coordinates": [ 20.250395721000189, 31.667479693000189 ] } },
{ "type": "Feature", "properties": { "featurename_en": "Suq Aljumaa", "featurename_ar": "سوق الجمعة", "pcode": "LY021101", "featurerefname": null, "featurealtname1_en": null, "featurealtname2_en": null, "featurealtname1_ar": null, "featurealtname2_ar": null, "popplaceclassnumber": null, "popplaceclasstitle": null, "adm2_en": "Tripoli", "adm2_ar": "طرابلس", "adm2_pcode": "LY0211", "adm1_en": "West", "adm1_ar": "الغرب", "adm1_pcode": "LY02", "adm0_en": "Libya", "adm0_ar": "ليبيا", "adm0_pcode": "LY", "date": "2016-11-30", "validon": "2018-10-30", "validto": null, "version": "v01" }, "geometry": { "type": "Point", "coordinates": [ 13.255209, 32.875031 ] } },
{ "type": "Feature", "properties": { "featurename_en": "Suq Alkhamees", "featurename_ar": "سوق الخميس", "pcode": "LY021202", "featurerefname": null, "featurealtname1_en": null, "featurealtname2_en": null, "featurealtname1_ar": null, "featurealtname2_ar": null, "popplaceclassnumber": null, "popplaceclasstitle": null, "adm2_en": "Aljfara", "adm2_ar": "الجفارة", "adm2_pcode": "LY0212", "adm1_en": "West", "adm1_ar": "الغرب", "adm1_pcode": "LY02", "adm0_en": "Libya", "adm0_ar": "ليبيا", "adm0_pcode": "LY", "date": "2016-11-30", "validon": "2018-10-30", "validto": null, "version": "v01" }, "geometry": { "type": "Point", "coordinates": [ 13.219777952000186, 32.527663935000078 ] } },
{ "type": "Feature", "properties": { "featurename_en": "Surman", "featurename_ar": "صرمان", "pcode": "LY021302", "featurerefname": null, "featurealtname1_en": null, "featurealtname2_en": null, "featurealtname1_ar": null, "featurealtname2_ar": null, "popplaceclassnumber": null, "popplaceclasstitle": null, "adm2_en": "Azzawya", "adm2_ar": "الزاوية", "adm2_pcode": "LY0213", "adm1_en": "West", "adm1_ar": "الغرب", "adm1_pcode": "LY02", "adm0_en": "Libya", "adm0_ar": "ليبيا", "adm0_pcode": "LY", "date": "2016-11-30", "validon": "2018-10-30", "validto": null, "version": "v01" }, "geometry": { "type": "Point", "coordinates": [ 12.572620752000148, 32.757597961000158 ] } },
{ "type": "Feature", "properties": { "featurename_en": "Swani Bin Adam", "featurename_ar": "سواني بن آدم", "pcode": "LY021205", "featurerefname": null, "featurealtname1_en": null, "featurealtname2_en": null, "featurealtname1_ar": null, "featurealtname2_ar": null, "popplaceclassnumber": null, "popplaceclasstitle": null, "adm2_en": "Aljfara", "adm2_ar": "الجفارة", "adm2_pcode": "LY0212", "adm1_en": "West", "adm1_ar": "الغرب", "adm1_pcode": "LY02", "adm0_en": "Libya", "adm0_ar": "ليبيا", "adm0_pcode": "LY", "date": "2016-11-30", "validon": "2018-10-30", "validto": null, "version": "v01" }, "geometry": { "type": "Point", "coordinates": [ 13.06725291000015, 32.712524955000049 ] } },
{ "type": "Feature", "properties": { "featurename_en": "Tajoura", "featurename_ar": "تاجوراء", "pcode": "LY021102", "featurerefname": null, "featurealtname1_en": null, "featurealtname2_en": null, "featurealtname1_ar": null, "featurealtname2_ar": null, "popplaceclassnumber": null, "popplaceclasstitle": null, "adm2_en": "Tripoli", "adm2_ar": "طرابلس", "adm2_pcode": "LY0211", "adm1_en": "West", "adm1_ar": "الغرب", "adm1_pcode": "LY02", "adm0_en": "Libya", "adm0_ar": "ليبيا", "adm0_pcode": "LY", "date": "2016-11-30", "validon": "2018-10-30", "validto": null, "version": "v01" }, "geometry": { "type": "Point", "coordinates": [ 13.352547514000094, 32.883444654000186 ] } },
{ "type": "Feature", "properties": { "featurename_en": "Taraghin", "featurename_ar": "تراغن", "pcode": "LY032203", "featurerefname": null, "featurealtname1_en": null, "featurealtname2_en": null, "featurealtname1_ar": null, "featurealtname2_ar": null, "popplaceclassnumber": null, "popplaceclasstitle": null, "adm2_en": "Murzuq", "adm2_ar": "مرزق", "adm2_pcode": "LY0322", "adm1_en": "South", "adm1_ar": "الجنوب", "adm1_pcode": "LY03", "adm0_en": "Libya", "adm0_ar": "ليبيا", "adm0_pcode": "LY", "date": "2016-11-30", "validon": "2018-10-30", "validto": null, "version": "v01" }, "geometry": { "type": "Point", "coordinates": [ 14.43088841499997, 25.937099980000141 ] } },
{ "type": "Feature", "properties": { "featurename_en": "Tarhuna", "featurename_ar": "ترهونة", "pcode": "LY021005", "featurerefname": null, "featurealtname1_en": null, "featurealtname2_en": null, "featurealtname1_ar": null, "featurealtname2_ar": null, "popplaceclassnumber": null, "popplaceclasstitle": null, "adm2_en": "Almargeb", "adm2_ar": "المرقب", "adm2_pcode": "LY0210", "adm1_en": "West", "adm1_ar": "الغرب", "adm1_pcode": "LY02", "adm0_en": "Libya", "adm0_ar": "ليبيا", "adm0_pcode": "LY", "date": "2016-11-30", "validon": "2018-10-30", "validto": null, "version": "v01" }, "geometry": { "type": "Point", "coordinates": [ 13.633147306000183, 32.434041292000131 ] } },
{ "type": "Feature", "properties": { "featurename_en": "Tazirbu", "featurename_ar": "تازربو", "pcode": "LY010702", "featurerefname": null, "featurealtname1_en": null, "featurealtname2_en": null, "featurealtname1_ar": null, "featurealtname2_ar": null, "popplaceclassnumber": null, "popplaceclasstitle": null, "adm2_en": "Alkufra", "adm2_ar": "الكفرة", "adm2_pcode": "LY0107", "adm1_en": "East", "adm1_ar": "الشرق", "adm1_pcode": "LY01", "adm0_en": "Libya", "adm0_ar": "ليبيا", "adm0_pcode": "LY", "date": "2016-11-30", "validon": "2018-10-30", "validto": null, "version": "v01" }, "geometry": { "type": "Point", "coordinates": [ 21.062476511000114, 25.679944534000015 ] } },
{ "type": "Feature", "properties": { "featurename_en": "Thaher Aljabal", "featurename_ar": "ظاهر الجبل", "pcode": "LY021614", "featurerefname": null, "featurealtname1_en": null, "featurealtname2_en": null, "featurealtname1_ar": null, "featurealtname2_ar": null, "popplaceclassnumber": null, "popplaceclasstitle": null, "adm2_en": "Al Jabal Al Gharbi", "adm2_ar": "الجبل الغربي", "adm2_pcode": "LY0216", "adm1_en": "West", "adm1_ar": "الغرب", "adm1_pcode": "LY02", "adm0_en": "Libya", "adm0_ar": "ليبيا", "adm0_pcode": "LY", "date": "2016-11-30", "validon": "2018-10-30", "validto": null, "version": "v01" }, "geometry": { "type": "Point", "coordinates": [ 12.551608, 32.012739000000124 ] } },
{ "type": "Feature", "properties": { "featurename_en": "Toukra", "featurename_ar": "توكرة", "pcode": "LY010302", "featurerefname": null, "featurealtname1_en": null, "featurealtname2_en": null, "featurealtname1_ar": null, "featurealtname2_ar": null, "popplaceclassnumber": null, "popplaceclasstitle": null, "adm2_en": "Benghazi", "adm2_ar": "بنغازي", "adm2_pcode": "LY0103", "adm1_en": "East", "adm1_ar": "الشرق", "adm1_pcode": "LY01", "adm0_en": "Libya", "adm0_ar": "ليبيا", "adm0_pcode": "LY", "date": "2016-11-30", "validon": "2018-10-30", "validto": null, "version": "v01" }, "geometry": { "type": "Point", "coordinates": [ 20.572221932, 32.532221994 ] } },
{ "type": "Feature", "properties": { "featurename_en": "Umm Arrazam", "featurename_ar": "ام الرزم", "pcode": "LY010101", "featurerefname": null, "featurealtname1_en": null, "featurealtname2_en": null, "featurealtname1_ar": null, "featurealtname2_ar": null, "popplaceclassnumber": null, "popplaceclasstitle": null, "adm2_en": "Derna", "adm2_ar": "درنه", "adm2_pcode": "LY0101", "adm1_en": "East", "adm1_ar": "الشرق", "adm1_pcode": "LY01", "adm0_en": "Libya", "adm0_ar": "ليبيا", "adm0_pcode": "LY", "date": "2016-11-30", "validon": "2018-10-30", "validto": null, "version": "v01" }, "geometry": { "type": "Point", "coordinates": [ 23.008754188000125, 32.531744477000018 ] } },
{ "type": "Feature", "properties": { "featurename_en": "Wadi Etba", "featurename_ar": "وادي عتبة", "pcode": "LY032205", "featurerefname": null, "featurealtname1_en": null, "featurealtname2_en": null, "featurealtname1_ar": null, "featurealtname2_ar": null, "popplaceclassnumber": null, "popplaceclasstitle": null, "adm2_en": "Murzuq", "adm2_ar": "مرزق", "adm2_pcode": "LY0322", "adm1_en": "South", "adm1_ar": "الجنوب", "adm1_pcode": "LY03", "adm0_en": "Libya", "adm0_ar": "ليبيا", "adm0_pcode": "LY", "date": "2016-11-30", "validon": "2018-10-30", "validto": null, "version": "v01" }, "geometry": { "type": "Point", "coordinates": [ 13.556706500000189, 26.094278200000076 ] } },
{ "type": "Feature", "properties": { "featurename_en": "Wazin", "featurename_ar": "وازن", "pcode": "LY020906", "featurerefname": null, "featurealtname1_en": null, "featurealtname2_en": null, "featurealtname1_ar": null, "featurealtname2_ar": null, "popplaceclassnumber": null, "popplaceclasstitle": null, "adm2_en": "Nalut", "adm2_ar": "نالوت", "adm2_pcode": "LY0209", "adm1_en": "West", "adm1_ar": "الغرب", "adm1_pcode": "LY02", "adm0_en": "Libya", "adm0_ar": "ليبيا", "adm0_pcode": "LY", "date": "2016-11-30", "validon": "2018-10-30", "validto": null, "version": "v01" }, "geometry": { "type": "Point", "coordinates": [ 10.669784883000034, 31.945645750000097 ] } },
{ "type": "Feature", "properties": { "featurename_en": "Yefren", "featurename_ar": "يفرن", "pcode": "LY021605", "featurerefname": null, "featurealtname1_en": null, "featurealtname2_en": null, "featurealtname1_ar": null, "featurealtname2_ar": null, "popplaceclassnumber": null, "popplaceclasstitle": null, "adm2_en": "Al Jabal Al Gharbi", "adm2_ar": "الجبل الغربي", "adm2_pcode": "LY0216", "adm1_en": "West", "adm1_ar": "الغرب", "adm1_pcode": "LY02", "adm0_en": "Libya", "adm0_ar": "ليبيا", "adm0_pcode": "LY", "date": "2016-11-30", "validon": "2018-10-30", "validto": null, "version": "v01" }, "geometry": { "type": "Point", "coordinates": [ 12.527650639000115, 32.063839090000101 ] } },
{ "type": "Feature", "properties": { "featurename_en": "Ziltun", "featurename_ar": "زلطن", "pcode": "LY021506", "featurerefname": null, "featurealtname1_en": null, "featurealtname2_en": null, "featurealtname1_ar": null, "featurealtname2_ar": null, "popplaceclassnumber": null, "popplaceclasstitle": null, "adm2_en": "Zwara", "adm2_ar": "زوارة", "adm2_pcode": "LY0215", "adm1_en": "West", "adm1_ar": "الغرب", "adm1_pcode": "LY02", "adm0_en": "Libya", "adm0_ar": "ليبيا", "adm0_pcode": "LY", "date": "2016-11-30", "validon": "2018-10-30", "validto": null, "version": "v01" }, "geometry": { "type": "Point", "coordinates": [ 11.866287840000041, 32.945914151000181 ] } },
{ "type": "Feature", "properties": { "featurename_en": "Zliten", "featurename_ar": "زليتن", "pcode": "LY021402", "featurerefname": null, "featurealtname1_en": null, "featurealtname2_en": null, "featurealtname1_ar": null, "featurealtname2_ar": null, "popplaceclassnumber": null, "popplaceclasstitle": null, "adm2_en": "Misrata", "adm2_ar": "مصراته", "adm2_pcode": "LY0214", "adm1_en": "West", "adm1_ar": "الغرب", "adm1_pcode": "LY02", "adm0_en": "Libya", "adm0_ar": "ليبيا", "adm0_pcode": "LY", "date": "2016-11-30", "validon": "2018-10-30", "validto": null, "version": "v01" }, "geometry": { "type": "Point", "coordinates": [ 14.565640019000057, 32.467561793000129 ] } }
]
}
